{"type":"FeatureCollection","features":[{"type":"Feature","geometry":{"type":"Point","coordinates":[-80.13931018660215,40.49453005071069]},"properties":{"tract_id":"42003459101","population":1706,"density_per_sqkm":133.14406061651817,"lng":-80.13931018660215,"lat":40.49453005071069}},{"type":"Feature","geometry":{"type":"Point","coordinates":[-80.05789916037992,40.49357694808001]},"properties":{"tract_id":"42003431500","population":3144,"density_per_sqkm":1103.964814696252,"lng":-80.05789916037992,"lat":40.49357694808001}},{"type":"Feature","geometry":{"type":"Point","coordinates":[-79.83323912800299,40.417188338665426]},"properties":{"tract_id":"42003520002","population":3196,"density_per_sqkm":451.4674328379111,"lng":-79.83323912800299,"lat":40.417188338665426}},{"type":"Feature","geometry":{"type":"Point","coordinates":[-79.94282736804566,40.46323795831747]},"properties":{"tract_id":"42003080900","population":2034,"density_per_sqkm":2135.112641141586,"lng":-79.94282736804566,"lat":40.46323795831747}},{"type":"Feature","geometry":{"type":"Point","coordinates":[-79.89338781309091,40.4585871495159]},"properties":{"tract_id":"42003130200","population":1161,"density_per_sqkm":1749.0304360475302,"lng":-79.89338781309091,"lat":40.4585871495159}},{"type":"Feature","geometry":{"type":"Point","coordinates":[-79.95024803059935,40.45948629592167]},"properties":{"tract_id":"42003080200","population":1867,"density_per_sqkm":3342.4507111024755,"lng":-79.95024803059935,"lat":40.45948629592167}},{"type":"Feature","geometry":{"type":"Point","coordinates":[-79.94580439583916,40.45680457640575]},"properties":{"tract_id":"42003080400","population":1650,"density_per_sqkm":1700.501238778898,"lng":-79.94580439583916,"lat":40.45680457640575}},{"type":"Feature","geometry":{"type":"Point","coordinates":[-79.87766792180433,40.45517861315901]},"properties":{"tract_id":"42003130600","population":3505,"density_per_sqkm":1465.7573959590711,"lng":-79.87766792180433,"lat":40.45517861315901}},{"type":"Feature","geometry":{"type":"Point","coordinates":[-80.01932926043229,40.49101515275945]},"properties":{"tract_id":"42003260200","population":2167,"density_per_sqkm":832.880315420505,"lng":-80.01932926043229,"lat":40.49101515275945}},{"type":"Feature","geometry":{"type":"Point","coordinates":[-80.0733972392285,40.48189231765397]},"properties":{"tract_id":"42003462100","population":2715,"density_per_sqkm":224.1626418391521,"lng":-80.0733972392285,"lat":40.48189231765397}},{"type":"Feature","geometry":{"type":"Point","coordinates":[-79.98556021976397,40.42234150824026]},"properties":{"tract_id":"42003170600","population":1630,"density_per_sqkm":628.9453289540024,"lng":-79.98556021976397,"lat":40.42234150824026}},{"type":"Feature","geometry":{"type":"Point","coordinates":[-79.9555306331931,40.569260841693655]},"properties":{"tract_id":"42003414200","population":5976,"density_per_sqkm":273.2602661034624,"lng":-79.9555306331931,"lat":40.569260841693655}},{"type":"Feature","geometry":{"type":"Point","coordinates":[-80.05406038553035,40.58192841565447]},"properties":{"tract_id":"42003413202","population":2745,"density_per_sqkm":305.5394861484726,"lng":-80.05406038553035,"lat":40.58192841565447}},{"type":"Feature","geometry":{"type":"Point","coordinates":[-79.99475318081731,40.5245036712229]},"properties":{"tract_id":"42003429202","population":4514,"density_per_sqkm":536.729508371526,"lng":-79.99475318081731,"lat":40.5245036712229}},{"type":"Feature","geometry":{"type":"Point","coordinates":[-79.8684858168918,40.46901254928076]},"properties":{"tract_id":"42003523100","population":3829,"density_per_sqkm":317.2327879994442,"lng":-79.8684858168918,"lat":40.46901254928076}},{"type":"Feature","geometry":{"type":"Point","coordinates":[-80.05635859998958,40.41887970911178]},"properties":{"tract_id":"42003469000","population":4870,"density_per_sqkm":473.66356516956404,"lng":-80.05635859998958,"lat":40.41887970911178}},{"type":"Feature","geometry":{"type":"Point","coordinates":[-79.94948459717028,40.44700544444049]},"properties":{"tract_id":"42003040400","population":1629,"density_per_sqkm":4702.673206711368,"lng":-79.94948459717028,"lat":40.44700544444049}},{"type":"Feature","geometry":{"type":"Point","coordinates":[-79.96166731120343,40.52303534647678]},"properties":{"tract_id":"42003426400","population":4203,"density_per_sqkm":521.6640199602421,"lng":-79.96166731120343,"lat":40.52303534647678}},{"type":"Feature","geometry":{"type":"Point","coordinates":[-79.86071592160562,40.49388286271386]},"properties":{"tract_id":"42003420000","population":1532,"density_per_sqkm":846.0972784457433,"lng":-79.86071592160562,"lat":40.49388286271386}},{"type":"Feature","geometry":{"type":"Point","coordinates":[-79.83672328953612,40.48869922870579]},"properties":{"tract_id":"42003523800","population":4604,"density_per_sqkm":432.7698303321137,"lng":-79.83672328953612,"lat":40.48869922870579}},{"type":"Feature","geometry":{"type":"Point","coordinates":[-79.91711797909754,40.421762089537964]},"properties":{"tract_id":"42003141400","population":4997,"density_per_sqkm":1253.4018502662989,"lng":-79.91711797909754,"lat":40.421762089537964}},{"type":"Feature","geometry":{"type":"Point","coordinates":[-79.89802345515508,40.40204194828621]},"properties":{"tract_id":"42003484300","population":3523,"density_per_sqkm":663.6636068769529,"lng":-79.89802345515508,"lat":40.40204194828621}},{"type":"Feature","geometry":{"type":"Point","coordinates":[-79.92485031098592,40.49430887805272]},"properties":{"tract_id":"42003424000","population":3189,"density_per_sqkm":867.5479621424247,"lng":-79.92485031098592,"lat":40.49430887805272}},{"type":"Feature","geometry":{"type":"Point","coordinates":[-80.14331673504176,40.442003135047045]},"properties":{"tract_id":"42003459201","population":7371,"density_per_sqkm":152.97320723212403,"lng":-80.14331673504176,"lat":40.442003135047045}},{"type":"Feature","geometry":{"type":"Point","coordinates":[-80.04332746818827,40.574707547750585]},"properties":{"tract_id":"42003413201","population":4085,"density_per_sqkm":521.8691431631943,"lng":-80.04332746818827,"lat":40.574707547750585}},{"type":"Feature","geometry":{"type":"Point","coordinates":[-80.19980646850082,40.52018847669169]},"properties":{"tract_id":"42003451102","population":6088,"density_per_sqkm":397.40478555611355,"lng":-80.19980646850082,"lat":40.52018847669169}},{"type":"Feature","geometry":{"type":"Point","coordinates":[-79.84123938769305,40.4370238246121]},"properties":{"tract_id":"42003519000","population":3127,"density_per_sqkm":252.38803540358813,"lng":-79.84123938769305,"lat":40.4370238246121}},{"type":"Feature","geometry":{"type":"Point","coordinates":[-80.01444327424859,40.401907527432]},"properties":{"tract_id":"42003191700","population":3427,"density_per_sqkm":807.5513515576813,"lng":-80.01444327424859,"lat":40.401907527432}},{"type":"Feature","geometry":{"type":"Point","coordinates":[-80.01329027040535,40.48138066836839]},"properties":{"tract_id":"42003260700","population":1618,"density_per_sqkm":1080.622895251568,"lng":-80.01329027040535,"lat":40.48138066836839}},{"type":"Feature","geometry":{"type":"Point","coordinates":[-80.01890911523087,40.53531359671916]},"properties":{"tract_id":"42003429500","population":4428,"density_per_sqkm":386.30122134730453,"lng":-80.01890911523087,"lat":40.53531359671916}},{"type":"Feature","geometry":{"type":"Point","coordinates":[-79.95534460125369,40.43974195708251]},"properties":{"tract_id":"42003040500","population":2840,"density_per_sqkm":2932.6378512123624,"lng":-79.95534460125369,"lat":40.43974195708251}},{"type":"Feature","geometry":{"type":"Point","coordinates":[-80.03191709182299,40.59367586654919]},"properties":{"tract_id":"42003413100","population":6737,"density_per_sqkm":315.9580935144506,"lng":-80.03191709182299,"lat":40.59367586654919}},{"type":"Feature","geometry":{"type":"Point","coordinates":[-79.9170697485554,40.510243877207564]},"properties":{"tract_id":"42003421200","population":4247,"density_per_sqkm":255.1148879297578,"lng":-79.9170697485554,"lat":40.510243877207564}},{"type":"Feature","geometry":{"type":"Point","coordinates":[-79.86358869829941,40.61940567458268]},"properties":{"tract_id":"42003407002","population":6457,"density_per_sqkm":170.20311095925447,"lng":-79.86358869829941,"lat":40.61940567458268}},{"type":"Feature","geometry":{"type":"Point","coordinates":[-79.93937114131657,40.460122684791976]},"properties":{"tract_id":"42003080600","population":1892,"density_per_sqkm":3198.457674600225,"lng":-79.93937114131657,"lat":40.460122684791976}},{"type":"Feature","geometry":{"type":"Point","coordinates":[-79.94042633902349,40.85361621889323]},"properties":{"tract_id":"42019903000","population":4477,"density_per_sqkm":112.97839017196429,"lng":-79.94042633902349,"lat":40.85361621889323}},{"type":"Feature","geometry":{"type":"Point","coordinates":[-80.11854632426838,40.80213521406935]},"properties":{"tract_id":"42019911800","population":7969,"density_per_sqkm":59.321860192965524,"lng":-80.11854632426838,"lat":40.80213521406935}},{"type":"Feature","geometry":{"type":"Point","coordinates":[-79.89191094791398,40.85114951166542]},"properties":{"tract_id":"42019902600","population":3216,"density_per_sqkm":191.75123016095577,"lng":-79.89191094791398,"lat":40.85114951166542}},{"type":"Feature","geometry":{"type":"Point","coordinates":[-80.06931308781564,40.43251436261234]},"properties":{"tract_id":"42003465800","population":3565,"density_per_sqkm":779.9496980753439,"lng":-80.06931308781564,"lat":40.43251436261234}},{"type":"Feature","geometry":{"type":"Point","coordinates":[-80.02371018793814,40.43373999250573]},"properties":{"tract_id":"42003191100","population":2276,"density_per_sqkm":844.0389569491,"lng":-80.02371018793814,"lat":40.43373999250573}},{"type":"Feature","geometry":{"type":"Point","coordinates":[-80.01007867243139,40.4212128103214]},"properties":{"tract_id":"42003191500","population":1995,"density_per_sqkm":885.8920803026508,"lng":-80.01007867243139,"lat":40.4212128103214}},{"type":"Feature","geometry":{"type":"Point","coordinates":[-80.022745206029,40.41646614164924]},"properties":{"tract_id":"42003191600","population":4076,"density_per_sqkm":861.0272365044027,"lng":-80.022745206029,"lat":40.41646614164924}},{"type":"Feature","geometry":{"type":"Point","coordinates":[-80.10279556872747,40.547190464437485]},"properties":{"tract_id":"42003437000","population":7050,"density_per_sqkm":208.50479502376703,"lng":-80.10279556872747,"lat":40.547190464437485}},{"type":"Feature","geometry":{"type":"Point","coordinates":[-79.8981113524516,40.47867145905162]},"properties":{"tract_id":"42003981800","population":385,"density_per_sqkm":132.14018614879407,"lng":-79.8981113524516,"lat":40.47867145905162}},{"type":"Feature","geometry":{"type":"Point","coordinates":[-80.10006642868471,40.42756742861362]},"properties":{"tract_id":"42003459202","population":633,"density_per_sqkm":1749.6246666551974,"lng":-80.10006642868471,"lat":40.42756742861362}},{"type":"Feature","geometry":{"type":"Point","coordinates":[-80.0390760923713,40.41050740217326]},"properties":{"tract_id":"42003202300","population":3677,"density_per_sqkm":700.865198815827,"lng":-80.0390760923713,"lat":40.41050740217326}},{"type":"Feature","geometry":{"type":"Point","coordinates":[-80.11911291203377,40.508702495365895]},"properties":{"tract_id":"42003461000","population":946,"density_per_sqkm":32.865862996612485,"lng":-80.11911291203377,"lat":40.508702495365895}},{"type":"Feature","geometry":{"type":"Point","coordinates":[-79.95989903730346,40.45332891792933]},"properties":{"tract_id":"42003050600","population":1960,"density_per_sqkm":1693.744778421205,"lng":-79.95989903730346,"lat":40.45332891792933}},{"type":"Feature","geometry":{"type":"Point","coordinates":[-79.97439110218261,40.450419518263296]},"properties":{"tract_id":"42003050900","population":1380,"density_per_sqkm":834.9287201923102,"lng":-79.97439110218261,"lat":40.450419518263296}},{"type":"Feature","geometry":{"type":"Point","coordinates":[-79.90032855101173,40.39250668980197]},"properties":{"tract_id":"42003484600","population":1815,"density_per_sqkm":813.3300435188645,"lng":-79.90032855101173,"lat":40.39250668980197}},{"type":"Feature","geometry":{"type":"Point","coordinates":[-80.07573288696182,40.474209052177265]},"properties":{"tract_id":"42003462600","population":3669,"density_per_sqkm":1857.0189312560308,"lng":-80.07573288696182,"lat":40.474209052177265}},{"type":"Feature","geometry":{"type":"Point","coordinates":[-80.07375919232413,40.46745629486442]},"properties":{"tract_id":"42003463900","population":3078,"density_per_sqkm":1792.1033167221663,"lng":-80.07375919232413,"lat":40.46745629486442}},{"type":"Feature","geometry":{"type":"Point","coordinates":[-79.83339054188477,40.524704798033724]},"properties":{"tract_id":"42003525300","population":2192,"density_per_sqkm":670.4424871819311,"lng":-79.83339054188477,"lat":40.524704798033724}},{"type":"Feature","geometry":{"type":"Point","coordinates":[-79.9041990538732,40.44257968460282]},"properties":{"tract_id":"42003981100","population":0,"density_per_sqkm":0,"lng":-79.9041990538732,"lat":40.44257968460282}},{"type":"Feature","geometry":{"type":"Point","coordinates":[-80.06956162228524,40.42264981426436]},"properties":{"tract_id":"42003562800","population":1560,"density_per_sqkm":289.681061038705,"lng":-80.06956162228524,"lat":40.42264981426436}},{"type":"Feature","geometry":{"type":"Point","coordinates":[-80.07801790562745,40.452926106201005]},"properties":{"tract_id":"42003563000","population":3361,"density_per_sqkm":428.7850892226638,"lng":-80.07801790562745,"lat":40.452926106201005}},{"type":"Feature","geometry":{"type":"Point","coordinates":[-80.23443747044581,40.828594713639006]},"properties":{"tract_id":"42007605100","population":4573,"density_per_sqkm":44.08178052146855,"lng":-80.23443747044581,"lat":40.828594713639006}},{"type":"Feature","geometry":{"type":"Point","coordinates":[-80.28367977799287,40.821025917996764]},"properties":{"tract_id":"42007605800","population":6175,"density_per_sqkm":83.55022977131286,"lng":-80.28367977799287,"lat":40.821025917996764}},{"type":"Feature","geometry":{"type":"Point","coordinates":[-80.05028927355436,40.39095070282518]},"properties":{"tract_id":"42003473100","population":4823,"density_per_sqkm":1723.0708825600657,"lng":-80.05028927355436,"lat":40.39095070282518}},{"type":"Feature","geometry":{"type":"Point","coordinates":[-80.20674085253387,40.45234668182385]},"properties":{"tract_id":"42003453004","population":7398,"density_per_sqkm":661.1584927344451,"lng":-80.20674085253387,"lat":40.45234668182385}},{"type":"Feature","geometry":{"type":"Point","coordinates":[-80.07157933757719,40.403871547785926]},"properties":{"tract_id":"42003470502","population":3061,"density_per_sqkm":508.96863844422637,"lng":-80.07157933757719,"lat":40.403871547785926}},{"type":"Feature","geometry":{"type":"Point","coordinates":[-79.8450932668577,40.419708861737114]},"properties":{"tract_id":"42003563900","population":3917,"density_per_sqkm":805.1109595035896,"lng":-79.8450932668577,"lat":40.419708861737114}},{"type":"Feature","geometry":{"type":"Point","coordinates":[-80.04479436611538,40.43139868306514]},"properties":{"tract_id":"42003563100","population":3491,"density_per_sqkm":654.7055464076856,"lng":-80.04479436611538,"lat":40.43139868306514}},{"type":"Feature","geometry":{"type":"Point","coordinates":[-80.00119944445623,40.41339693403713]},"properties":{"tract_id":"42003562400","population":2955,"density_per_sqkm":1048.7182160870136,"lng":-80.00119944445623,"lat":40.41339693403713}},{"type":"Feature","geometry":{"type":"Point","coordinates":[-80.03920003956146,40.44157902307801]},"properties":{"tract_id":"42003562600","population":2712,"density_per_sqkm":570.8196132322876,"lng":-80.03920003956146,"lat":40.44157902307801}},{"type":"Feature","geometry":{"type":"Point","coordinates":[-79.91437518804835,40.47875724359998]},"properties":{"tract_id":"42003980100","population":0,"density_per_sqkm":0,"lng":-79.91437518804835,"lat":40.47875724359998}},{"type":"Feature","geometry":{"type":"Point","coordinates":[-80.08768212500574,40.4117198660731]},"properties":{"tract_id":"42003468700","population":1740,"density_per_sqkm":677.4819201697104,"lng":-80.08768212500574,"lat":40.4117198660731}},{"type":"Feature","geometry":{"type":"Point","coordinates":[-80.05949497745017,40.39769518044315]},"properties":{"tract_id":"42003470501","population":4344,"density_per_sqkm":2283.5585872411725,"lng":-80.05949497745017,"lat":40.39769518044315}},{"type":"Feature","geometry":{"type":"Point","coordinates":[-79.96412948099625,40.43254960760789]},"properties":{"tract_id":"42003980800","population":0,"density_per_sqkm":0,"lng":-79.96412948099625,"lat":40.43254960760789}},{"type":"Feature","geometry":{"type":"Point","coordinates":[-80.06630420125393,40.44512658537215]},"properties":{"tract_id":"42003464300","population":3351,"density_per_sqkm":1707.729185788779,"lng":-80.06630420125393,"lat":40.44512658537215}},{"type":"Feature","geometry":{"type":"Point","coordinates":[-79.95243226892572,40.43729031094925]},"properties":{"tract_id":"42003040600","population":2302,"density_per_sqkm":4622.755382401491,"lng":-79.95243226892572,"lat":40.43729031094925}},{"type":"Feature","geometry":{"type":"Point","coordinates":[-79.88995472303007,40.44386386923988]},"properties":{"tract_id":"42003560400","population":1554,"density_per_sqkm":1857.705753850972,"lng":-79.88995472303007,"lat":40.44386386923988}},{"type":"Feature","geometry":{"type":"Point","coordinates":[-79.89143201652315,40.437804776859075]},"properties":{"tract_id":"42003560500","population":2212,"density_per_sqkm":3119.007949870586,"lng":-79.89143201652315,"lat":40.437804776859075}},{"type":"Feature","geometry":{"type":"Point","coordinates":[-79.88067326783239,40.56842443650583]},"properties":{"tract_id":"42003415001","population":4725,"density_per_sqkm":95.22315307783661,"lng":-79.88067326783239,"lat":40.56842443650583}},{"type":"Feature","geometry":{"type":"Point","coordinates":[-79.95815803158592,40.64248633634064]},"properties":{"tract_id":"42003408001","population":5727,"density_per_sqkm":195.60421968751953,"lng":-79.95815803158592,"lat":40.64248633634064}},{"type":"Feature","geometry":{"type":"Point","coordinates":[-80.04501551760747,40.56470951438245]},"properties":{"tract_id":"42003413300","population":4550,"density_per_sqkm":559.5721214878185,"lng":-80.04501551760747,"lat":40.56470951438245}},{"type":"Feature","geometry":{"type":"Point","coordinates":[-79.8938925903531,40.527095345384595]},"properties":{"tract_id":"42003422000","population":5299,"density_per_sqkm":156.33488738423247,"lng":-79.8938925903531,"lat":40.527095345384595}},{"type":"Feature","geometry":{"type":"Point","coordinates":[-80.00956880697035,40.42729218987847]},"properties":{"tract_id":"42003191400","population":2429,"density_per_sqkm":921.8390136495036,"lng":-80.00956880697035,"lat":40.42729218987847}},{"type":"Feature","geometry":{"type":"Point","coordinates":[-80.15080210174916,40.37048275333485]},"properties":{"tract_id":"42003456001","population":4759,"density_per_sqkm":122.71316894658898,"lng":-80.15080210174916,"lat":40.37048275333485}},{"type":"Feature","geometry":{"type":"Point","coordinates":[-79.90390490611485,40.4230874816125]},"properties":{"tract_id":"42003141100","population":1432,"density_per_sqkm":455.1263189907036,"lng":-79.90390490611485,"lat":40.4230874816125}},{"type":"Feature","geometry":{"type":"Point","coordinates":[-79.93200307043186,40.41046064321495]},"properties":{"tract_id":"42003562300","population":2966,"density_per_sqkm":521.1396893331926,"lng":-79.93200307043186,"lat":40.41046064321495}},{"type":"Feature","geometry":{"type":"Point","coordinates":[-79.96747969905192,40.44353168931495]},"properties":{"tract_id":"42003051000","population":2187,"density_per_sqkm":1391.3503049839146,"lng":-79.96747969905192,"lat":40.44353168931495}},{"type":"Feature","geometry":{"type":"Point","coordinates":[-79.97678151683826,40.441459831471064]},"properties":{"tract_id":"42003051100","population":458,"density_per_sqkm":1402.3157422206832,"lng":-79.97678151683826,"lat":40.441459831471064}},{"type":"Feature","geometry":{"type":"Point","coordinates":[-80.08545057088111,40.39406589819191]},"properties":{"tract_id":"42003470600","population":3114,"density_per_sqkm":721.6748112202426,"lng":-80.08545057088111,"lat":40.39406589819191}},{"type":"Feature","geometry":{"type":"Point","coordinates":[-79.89441366461915,40.46913790857665]},"properties":{"tract_id":"42003561900","population":2007,"density_per_sqkm":1235.646830853347,"lng":-79.89441366461915,"lat":40.46913790857665}},{"type":"Feature","geometry":{"type":"Point","coordinates":[-80.18837488111271,40.40013606995117]},"properties":{"tract_id":"42003455000","population":1459,"density_per_sqkm":547.2524763966081,"lng":-80.18837488111271,"lat":40.40013606995117}},{"type":"Feature","geometry":{"type":"Point","coordinates":[-80.19047297315721,40.55260710738481]},"properties":{"tract_id":"42003446000","population":1520,"density_per_sqkm":193.08705948484092,"lng":-80.19047297315721,"lat":40.55260710738481}},{"type":"Feature","geometry":{"type":"Point","coordinates":[-79.97289987245152,40.44792929083054]},"properties":{"tract_id":"42003050100","population":1561,"density_per_sqkm":891.285295293815,"lng":-79.97289987245152,"lat":40.44792929083054}},{"type":"Feature","geometry":{"type":"Point","coordinates":[-79.92570842502856,40.453552808348405]},"properties":{"tract_id":"42003070600","population":2215,"density_per_sqkm":3047.4325861821317,"lng":-79.92570842502856,"lat":40.453552808348405}},{"type":"Feature","geometry":{"type":"Point","coordinates":[-79.93408526441615,40.46141285055286]},"properties":{"tract_id":"42003080700","population":2034,"density_per_sqkm":4140.5656359958075,"lng":-79.93408526441615,"lat":40.46141285055286}},{"type":"Feature","geometry":{"type":"Point","coordinates":[-79.96109494913374,40.47454214406095]},"properties":{"tract_id":"42003090100","population":2073,"density_per_sqkm":1276.0183870017538,"lng":-79.96109494913374,"lat":40.47454214406095}},{"type":"Feature","geometry":{"type":"Point","coordinates":[-79.9238756263975,40.46214085714388]},"properties":{"tract_id":"42003111500","population":3228,"density_per_sqkm":1772.1372017572328,"lng":-79.9238756263975,"lat":40.46214085714388}},{"type":"Feature","geometry":{"type":"Point","coordinates":[-79.91491830809548,40.43178108104619]},"properties":{"tract_id":"42003140800","population":4919,"density_per_sqkm":2743.28281235362,"lng":-79.91491830809548,"lat":40.43178108104619}},{"type":"Feature","geometry":{"type":"Point","coordinates":[-79.83475273288613,40.471649543046034]},"properties":{"tract_id":"42003523300","population":3926,"density_per_sqkm":594.8031829336027,"lng":-79.83475273288613,"lat":40.471649543046034}},{"type":"Feature","geometry":{"type":"Point","coordinates":[-80.27176646336652,40.67919236584141]},"properties":{"tract_id":"42007603300","population":3900,"density_per_sqkm":662.4947054524221,"lng":-80.27176646336652,"lat":40.67919236584141}},{"type":"Feature","geometry":{"type":"Point","coordinates":[-80.27307540117751,40.68635036418488]},"properties":{"tract_id":"42007603400","population":1687,"density_per_sqkm":187.89664207243032,"lng":-80.27307540117751,"lat":40.68635036418488}},{"type":"Feature","geometry":{"type":"Point","coordinates":[-80.02821278203885,40.775747794858354]},"properties":{"tract_id":"42019911700","population":5191,"density_per_sqkm":73.64652802435886,"lng":-80.02821278203885,"lat":40.775747794858354}},{"type":"Feature","geometry":{"type":"Point","coordinates":[-79.90219252482007,40.451643645381914]},"properties":{"tract_id":"42003140500","population":1884,"density_per_sqkm":985.2630804964854,"lng":-79.90219252482007,"lat":40.451643645381914}},{"type":"Feature","geometry":{"type":"Point","coordinates":[-79.9819217669328,40.429274466148634]},"properties":{"tract_id":"42003170200","population":3882,"density_per_sqkm":1769.9426894591572,"lng":-79.9819217669328,"lat":40.429274466148634}},{"type":"Feature","geometry":{"type":"Point","coordinates":[-80.05746146305032,40.45752725289956]},"properties":{"tract_id":"42003562500","population":2774,"density_per_sqkm":511.8738213479348,"lng":-80.05746146305032,"lat":40.45752725289956}},{"type":"Feature","geometry":{"type":"Point","coordinates":[-79.92114870472791,40.45693015239124]},"properties":{"tract_id":"42003070800","population":2530,"density_per_sqkm":2721.753983867015,"lng":-79.92114870472791,"lat":40.45693015239124}},{"type":"Feature","geometry":{"type":"Point","coordinates":[-79.95721810381325,40.46875008490971]},"properties":{"tract_id":"42003090200","population":2657,"density_per_sqkm":3083.7083999988317,"lng":-79.95721810381325,"lat":40.46875008490971}},{"type":"Feature","geometry":{"type":"Point","coordinates":[-79.95342018365852,40.46405570407256]},"properties":{"tract_id":"42003090300","population":1473,"density_per_sqkm":3890.1989818150746,"lng":-79.95342018365852,"lat":40.46405570407256}},{"type":"Feature","geometry":{"type":"Point","coordinates":[-79.93638397137916,40.4771758857116]},"properties":{"tract_id":"42003100500","population":2023,"density_per_sqkm":1464.9410679695761,"lng":-79.93638397137916,"lat":40.4771758857116}},{"type":"Feature","geometry":{"type":"Point","coordinates":[-79.9479805784372,40.482695941181746]},"properties":{"tract_id":"42003101100","population":2537,"density_per_sqkm":835.404723774487,"lng":-79.9479805784372,"lat":40.482695941181746}},{"type":"Feature","geometry":{"type":"Point","coordinates":[-79.93875694653288,40.44252889305638]},"properties":{"tract_id":"42003140100","population":6118,"density_per_sqkm":2958.3203833299817,"lng":-79.93875694653288,"lat":40.44252889305638}},{"type":"Feature","geometry":{"type":"Point","coordinates":[-79.927547777023,40.4480424932511]},"properties":{"tract_id":"42003140200","population":2468,"density_per_sqkm":1706.0932344251053,"lng":-79.927547777023,"lat":40.4480424932511}},{"type":"Feature","geometry":{"type":"Point","coordinates":[-79.92836444003598,40.45588358998219]},"properties":{"tract_id":"42003070500","population":2996,"density_per_sqkm":4492.221056269257,"lng":-79.92836444003598,"lat":40.45588358998219}},{"type":"Feature","geometry":{"type":"Point","coordinates":[-80.1220683648057,40.703500157477215]},"properties":{"tract_id":"42019912002","population":5962,"density_per_sqkm":302.26878329626607,"lng":-80.1220683648057,"lat":40.703500157477215}},{"type":"Feature","geometry":{"type":"Point","coordinates":[-79.96630354888934,40.457437390978406]},"properties":{"tract_id":"42003060500","population":1203,"density_per_sqkm":826.2693940061166,"lng":-79.96630354888934,"lat":40.457437390978406}},{"type":"Feature","geometry":{"type":"Point","coordinates":[-79.93541546953492,40.451101052184846]},"properties":{"tract_id":"42003070300","population":2278,"density_per_sqkm":3044.9955200142163,"lng":-79.93541546953492,"lat":40.451101052184846}},{"type":"Feature","geometry":{"type":"Point","coordinates":[-79.97427330568243,40.420273384282936]},"properties":{"tract_id":"42003160800","population":2334,"density_per_sqkm":1674.2704023387716,"lng":-79.97427330568243,"lat":40.420273384282936}},{"type":"Feature","geometry":{"type":"Point","coordinates":[-79.96820191998731,40.42489158000186]},"properties":{"tract_id":"42003160900","population":3303,"density_per_sqkm":621.3743788072811,"lng":-79.96820191998731,"lat":40.42489158000186}},{"type":"Feature","geometry":{"type":"Point","coordinates":[-79.9624077919385,40.46447459733597]},"properties":{"tract_id":"42003060300","population":2448,"density_per_sqkm":967.6240126230948,"lng":-79.9624077919385,"lat":40.46447459733597}},{"type":"Feature","geometry":{"type":"Point","coordinates":[-79.90160307223788,40.46925262779302]},"properties":{"tract_id":"42003120300","population":2093,"density_per_sqkm":1296.3948391757883,"lng":-79.90160307223788,"lat":40.46925262779302}},{"type":"Feature","geometry":{"type":"Point","coordinates":[-79.94047995060825,40.45259020371364]},"properties":{"tract_id":"42003070900","population":4196,"density_per_sqkm":2573.9984269776755,"lng":-79.94047995060825,"lat":40.45259020371364}},{"type":"Feature","geometry":{"type":"Point","coordinates":[-79.92408001204267,40.469053114468856]},"properties":{"tract_id":"42003111300","population":2785,"density_per_sqkm":2021.833653158944,"lng":-79.92408001204267,"lat":40.469053114468856}},{"type":"Feature","geometry":{"type":"Point","coordinates":[-79.93247259000809,40.46677095001435]},"properties":{"tract_id":"42003111400","population":1302,"density_per_sqkm":2178.740175342723,"lng":-79.93247259000809,"lat":40.46677095001435}},{"type":"Feature","geometry":{"type":"Point","coordinates":[-80.01342719320415,40.431841107995375]},"properties":{"tract_id":"42003190300","population":1913,"density_per_sqkm":818.503195708742,"lng":-80.01342719320415,"lat":40.431841107995375}},{"type":"Feature","geometry":{"type":"Point","coordinates":[-79.86939511895868,40.441465766522306]},"properties":{"tract_id":"42003561500","population":2737,"density_per_sqkm":1057.9377393873972,"lng":-79.86939511895868,"lat":40.441465766522306}},{"type":"Feature","geometry":{"type":"Point","coordinates":[-79.97293646441878,40.48159842258976]},"properties":{"tract_id":"42003427000","population":3377,"density_per_sqkm":772.2285909330129,"lng":-79.97293646441878,"lat":40.48159842258976}},{"type":"Feature","geometry":{"type":"Point","coordinates":[-80.0363049738493,40.476893294115015]},"properties":{"tract_id":"42003270300","population":2213,"density_per_sqkm":1948.0294810722914,"lng":-80.0363049738493,"lat":40.476893294115015}},{"type":"Feature","geometry":{"type":"Point","coordinates":[-79.9974039623164,40.44166699999276]},"properties":{"tract_id":"42003020100","population":4310,"density_per_sqkm":1137.0366863831086,"lng":-79.9974039623164,"lat":40.44166699999276}},{"type":"Feature","geometry":{"type":"Point","coordinates":[-80.00899071489093,40.50571954928142]},"properties":{"tract_id":"42003429100","population":2532,"density_per_sqkm":224.56097202524816,"lng":-80.00899071489093,"lat":40.50571954928142}},{"type":"Feature","geometry":{"type":"Point","coordinates":[-79.97533135036687,40.51757487226171]},"properties":{"tract_id":"42003427100","population":5524,"density_per_sqkm":471.24018199202277,"lng":-79.97533135036687,"lat":40.51757487226171}},{"type":"Feature","geometry":{"type":"Point","coordinates":[-80.23703262412698,40.4588070765575]},"properties":{"tract_id":"42003452000","population":6375,"density_per_sqkm":34.63653846783635,"lng":-80.23703262412698,"lat":40.4588070765575}},{"type":"Feature","geometry":{"type":"Point","coordinates":[-80.13566326300784,40.47169857804988]},"properties":{"tract_id":"42003459102","population":6293,"density_per_sqkm":411.67606067203513,"lng":-80.13566326300784,"lat":40.47169857804988}},{"type":"Feature","geometry":{"type":"Point","coordinates":[-80.18288562650045,40.485111338387014]},"properties":{"tract_id":"42003451300","population":7291,"density_per_sqkm":101.19831160320867,"lng":-80.18288562650045,"lat":40.485111338387014}},{"type":"Feature","geometry":{"type":"Point","coordinates":[-80.22616287815018,40.53598373527492]},"properties":{"tract_id":"42003451101","population":3734,"density_per_sqkm":166.28475964570555,"lng":-80.22616287815018,"lat":40.53598373527492}},{"type":"Feature","geometry":{"type":"Point","coordinates":[-80.01099922892834,40.46527716466406]},"properties":{"tract_id":"42003261400","population":2174,"density_per_sqkm":969.2707477635464,"lng":-80.01099922892834,"lat":40.46527716466406}},{"type":"Feature","geometry":{"type":"Point","coordinates":[-79.93704158106598,40.589873385136414]},"properties":{"tract_id":"42003414101","population":5453,"density_per_sqkm":400.3808379306318,"lng":-79.93704158106598,"lat":40.589873385136414}},{"type":"Feature","geometry":{"type":"Point","coordinates":[-80.06835648386584,40.43759275114852]},"properties":{"tract_id":"42003465600","population":2479,"density_per_sqkm":1314.5895197158643,"lng":-80.06835648386584,"lat":40.43759275114852}},{"type":"Feature","geometry":{"type":"Point","coordinates":[-80.04009489506863,40.39421697901081]},"properties":{"tract_id":"42003472200","population":2325,"density_per_sqkm":2042.6337947084921,"lng":-80.04009489506863,"lat":40.39421697901081}},{"type":"Feature","geometry":{"type":"Point","coordinates":[-80.0605561919591,40.46954444950419]},"properties":{"tract_id":"42003464400","population":2815,"density_per_sqkm":1019.2943593100949,"lng":-80.0605561919591,"lat":40.46954444950419}},{"type":"Feature","geometry":{"type":"Point","coordinates":[-79.8449116299084,40.40236737004493]},"properties":{"tract_id":"42003512000","population":2077,"density_per_sqkm":768.0571399127903,"lng":-79.8449116299084,"lat":40.40236737004493}},{"type":"Feature","geometry":{"type":"Point","coordinates":[-80.01628340180643,40.47087925116957]},"properties":{"tract_id":"42003261500","population":1871,"density_per_sqkm":662.1415780795121,"lng":-80.01628340180643,"lat":40.47087925116957}},{"type":"Feature","geometry":{"type":"Point","coordinates":[-79.99547948999043,40.46632593500042]},"properties":{"tract_id":"42003262000","population":2466,"density_per_sqkm":897.4921108683156,"lng":-79.99547948999043,"lat":40.46632593500042}},{"type":"Feature","geometry":{"type":"Point","coordinates":[-79.8794703439993,40.412228104031534]},"properties":{"tract_id":"42003514000","population":1837,"density_per_sqkm":802.1090596948816,"lng":-79.8794703439993,"lat":40.412228104031534}},{"type":"Feature","geometry":{"type":"Point","coordinates":[-79.88025489997318,40.419144680979464]},"properties":{"tract_id":"42003515100","population":2911,"density_per_sqkm":1322.3209160607018,"lng":-79.88025489997318,"lat":40.419144680979464}},{"type":"Feature","geometry":{"type":"Point","coordinates":[-79.88013956026181,40.42450580852646]},"properties":{"tract_id":"42003515200","population":2018,"density_per_sqkm":2345.5154261120665,"lng":-79.88013956026181,"lat":40.42450580852646}},{"type":"Feature","geometry":{"type":"Point","coordinates":[-79.89087094736433,40.42002124813832]},"properties":{"tract_id":"42003515300","population":1488,"density_per_sqkm":813.1625405718127,"lng":-79.89087094736433,"lat":40.42002124813832}},{"type":"Feature","geometry":{"type":"Point","coordinates":[-79.98375471430228,40.441345478039]},"properties":{"tract_id":"42003030500","population":3044,"density_per_sqkm":1720.1939453801988,"lng":-79.98375471430228,"lat":40.441345478039}},{"type":"Feature","geometry":{"type":"Point","coordinates":[-79.96768348803025,40.44035014000096]},"properties":{"tract_id":"42003040200","population":1843,"density_per_sqkm":1190.1462883551649,"lng":-79.96768348803025,"lat":40.44035014000096}},{"type":"Feature","geometry":{"type":"Point","coordinates":[-79.93888565366986,40.48257980932675]},"properties":{"tract_id":"42003101800","population":2532,"density_per_sqkm":827.0271368305837,"lng":-79.93888565366986,"lat":40.48257980932675}},{"type":"Feature","geometry":{"type":"Point","coordinates":[-79.92254242576531,40.47485820646006]},"properties":{"tract_id":"42003110200","population":4054,"density_per_sqkm":3124.79769344932,"lng":-79.92254242576531,"lat":40.47485820646006}},{"type":"Feature","geometry":{"type":"Point","coordinates":[-80.00089857147526,40.42428465871676]},"properties":{"tract_id":"42003180700","population":2259,"density_per_sqkm":4588.7776961515865,"lng":-80.00089857147526,"lat":40.42428465871676}},{"type":"Feature","geometry":{"type":"Point","coordinates":[-79.8590551204209,40.427834594900894]},"properties":{"tract_id":"42003518001","population":3129,"density_per_sqkm":651.4165705117338,"lng":-79.8590551204209,"lat":40.427834594900894}},{"type":"Feature","geometry":{"type":"Point","coordinates":[-80.06256430600891,40.45497680874788]},"properties":{"tract_id":"42003202200","population":2548,"density_per_sqkm":1218.935327718945,"lng":-80.06256430600891,"lat":40.45497680874788}},{"type":"Feature","geometry":{"type":"Point","coordinates":[-80.2828884069563,40.70487026163994]},"properties":{"tract_id":"42007602100","population":3460,"density_per_sqkm":1279.9149979826832,"lng":-80.2828884069563,"lat":40.70487026163994}},{"type":"Feature","geometry":{"type":"Point","coordinates":[-80.0104401315871,40.711598926689476]},"properties":{"tract_id":"42019912405","population":5064,"density_per_sqkm":118.47382024311308,"lng":-80.0104401315871,"lat":40.711598926689476}},{"type":"Feature","geometry":{"type":"Point","coordinates":[-79.99248934494952,40.68719765822813]},"properties":{"tract_id":"42019912406","population":2452,"density_per_sqkm":240.56013083602275,"lng":-79.99248934494952,"lat":40.68719765822813}},{"type":"Feature","geometry":{"type":"Point","coordinates":[-80.03078480621407,40.70923110309538]},"properties":{"tract_id":"42019912403","population":3047,"density_per_sqkm":109.03816290229402,"lng":-80.03078480621407,"lat":40.70923110309538}},{"type":"Feature","geometry":{"type":"Point","coordinates":[-80.02691263601702,40.68514264399694]},"properties":{"tract_id":"42019912404","population":6406,"density_per_sqkm":471.6149160482563,"lng":-80.02691263601702,"lat":40.68514264399694}},{"type":"Feature","geometry":{"type":"Point","coordinates":[-80.01045061466739,40.44800054126278]},"properties":{"tract_id":"42003981200","population":0,"density_per_sqkm":0,"lng":-80.01045061466739,"lat":40.44800054126278}},{"type":"Feature","geometry":{"type":"Point","coordinates":[-80.30233982874212,40.649302918730804]},"properties":{"tract_id":"42007603202","population":6840,"density_per_sqkm":90.57726089981401,"lng":-80.30233982874212,"lat":40.649302918730804}},{"type":"Feature","geometry":{"type":"Point","coordinates":[-80.2747338064373,40.59729441531546]},"properties":{"tract_id":"42007604901","population":4692,"density_per_sqkm":47.885040287014206,"lng":-80.2747338064373,"lat":40.59729441531546}},{"type":"Feature","geometry":{"type":"Point","coordinates":[-80.20281817786977,40.659296093962574]},"properties":{"tract_id":"42007603801","population":2831,"density_per_sqkm":140.66338679674215,"lng":-80.20281817786977,"lat":40.659296093962574}},{"type":"Feature","geometry":{"type":"Point","coordinates":[-79.84287430332253,40.51704390166377]},"properties":{"tract_id":"42003525200","population":2565,"density_per_sqkm":1267.1946202298407,"lng":-79.84287430332253,"lat":40.51704390166377}},{"type":"Feature","geometry":{"type":"Point","coordinates":[-79.82180410436426,40.766339017390955]},"properties":{"tract_id":"42019911501","population":5190,"density_per_sqkm":81.46587862987498,"lng":-79.82180410436426,"lat":40.766339017390955}},{"type":"Feature","geometry":{"type":"Point","coordinates":[-80.11202947334657,40.65410015997727]},"properties":{"tract_id":"42003411001","population":4087,"density_per_sqkm":130.41266098054552,"lng":-80.11202947334657,"lat":40.65410015997727}},{"type":"Feature","geometry":{"type":"Point","coordinates":[-80.02754953211182,40.655210458728206]},"properties":{"tract_id":"42003409002","population":5418,"density_per_sqkm":197.33037013541164,"lng":-80.02754953211182,"lat":40.655210458728206}},{"type":"Feature","geometry":{"type":"Point","coordinates":[-80.08205728503322,40.592801579441925]},"properties":{"tract_id":"42003412003","population":6542,"density_per_sqkm":604.8349669133819,"lng":-80.08205728503322,"lat":40.592801579441925}},{"type":"Feature","geometry":{"type":"Point","coordinates":[-79.99791112243939,40.4502223061142]},"properties":{"tract_id":"42003563201","population":266,"density_per_sqkm":249.7540743222225,"lng":-79.99791112243939,"lat":40.4502223061142}},{"type":"Feature","geometry":{"type":"Point","coordinates":[-80.03669159321676,40.63758269916215]},"properties":{"tract_id":"42003409001","population":9310,"density_per_sqkm":294.7786679438779,"lng":-80.03669159321676,"lat":40.63758269916215}},{"type":"Feature","geometry":{"type":"Point","coordinates":[-79.98759587212953,40.46469264590688]},"properties":{"tract_id":"42003241300","population":3458,"density_per_sqkm":577.7868428287146,"lng":-79.98759587212953,"lat":40.46469264590688}},{"type":"Feature","geometry":{"type":"Point","coordinates":[-79.9974456303247,40.456387559242415]},"properties":{"tract_id":"42003563202","population":1924,"density_per_sqkm":1670.4232742998856,"lng":-79.9974456303247,"lat":40.456387559242415}},{"type":"Feature","geometry":{"type":"Point","coordinates":[-80.02290122925835,40.45761447319419]},"properties":{"tract_id":"42003565200","population":3011,"density_per_sqkm":1501.772998343624,"lng":-80.02290122925835,"lat":40.45761447319419}},{"type":"Feature","geometry":{"type":"Point","coordinates":[-80.01033213044936,40.45713689854321]},"properties":{"tract_id":"42003565100","population":2953,"density_per_sqkm":2093.388028900217,"lng":-80.01033213044936,"lat":40.45713689854321}},{"type":"Feature","geometry":{"type":"Point","coordinates":[-80.00734259999695,40.48803519997924]},"properties":{"tract_id":"42003261300","population":2996,"density_per_sqkm":492.4275011062397,"lng":-80.00734259999695,"lat":40.48803519997924}},{"type":"Feature","geometry":{"type":"Point","coordinates":[-80.02888817080292,40.47370901424335]},"properties":{"tract_id":"42003271600","population":4310,"density_per_sqkm":1077.8494076963195,"lng":-80.02888817080292,"lat":40.47370901424335}},{"type":"Feature","geometry":{"type":"Point","coordinates":[-79.9467096838339,40.41660335739675]},"properties":{"tract_id":"42003562901","population":1508,"density_per_sqkm":183.0540225411454,"lng":-79.9467096838339,"lat":40.41660335739675}},{"type":"Feature","geometry":{"type":"Point","coordinates":[-79.97035912015129,40.41263756204757]},"properties":{"tract_id":"42003161000","population":2902,"density_per_sqkm":656.9332097076397,"lng":-79.97035912015129,"lat":40.41263756204757}},{"type":"Feature","geometry":{"type":"Point","coordinates":[-80.21715516349744,40.59894515590174]},"properties":{"tract_id":"42007603900","population":3178,"density_per_sqkm":252.09805638428807,"lng":-80.21715516349744,"lat":40.59894515590174}},{"type":"Feature","geometry":{"type":"Point","coordinates":[-80.28604913723528,40.752526380403516]},"properties":{"tract_id":"42007601700","population":3242,"density_per_sqkm":84.08192273678208,"lng":-80.28604913723528,"lat":40.752526380403516}},{"type":"Feature","geometry":{"type":"Point","coordinates":[-79.90763065067955,40.405671966496165]},"properties":{"tract_id":"42003483800","population":2905,"density_per_sqkm":922.001169227836,"lng":-79.90763065067955,"lat":40.405671966496165}},{"type":"Feature","geometry":{"type":"Point","coordinates":[-79.87659478356727,40.38896027273376]},"properties":{"tract_id":"42003488200","population":3455,"density_per_sqkm":461.8374571179287,"lng":-79.87659478356727,"lat":40.38896027273376}},{"type":"Feature","geometry":{"type":"Point","coordinates":[-80.25143080215449,40.68607275821689]},"properties":{"tract_id":"42007603500","population":1625,"density_per_sqkm":338.8139740272782,"lng":-80.25143080215449,"lat":40.68607275821689}},{"type":"Feature","geometry":{"type":"Point","coordinates":[-80.2391706944484,40.66677165281131]},"properties":{"tract_id":"42007603600","population":2105,"density_per_sqkm":350.71974720216673,"lng":-80.2391706944484,"lat":40.66677165281131}},{"type":"Feature","geometry":{"type":"Point","coordinates":[-79.8273009132415,40.72859602282948]},"properties":{"tract_id":"42019911502","population":4221,"density_per_sqkm":53.59943228973467,"lng":-79.8273009132415,"lat":40.72859602282948}},{"type":"Feature","geometry":{"type":"Point","coordinates":[-80.01208711040212,40.84944277275272]},"properties":{"tract_id":"42019911100","population":4859,"density_per_sqkm":67.38664334651011,"lng":-80.01208711040212,"lat":40.84944277275272}},{"type":"Feature","geometry":{"type":"Point","coordinates":[-80.05203969941442,40.44030202311135]},"properties":{"tract_id":"42003281500","population":1480,"density_per_sqkm":1521.6921318130073,"lng":-80.05203969941442,"lat":40.44030202311135}},{"type":"Feature","geometry":{"type":"Point","coordinates":[-79.98441360149084,40.39926401880511]},"properties":{"tract_id":"42003290200","population":4268,"density_per_sqkm":1348.4814100664219,"lng":-79.98441360149084,"lat":40.39926401880511}},{"type":"Feature","geometry":{"type":"Point","coordinates":[-80.08308650003268,40.63763990840942]},"properties":{"tract_id":"42003410000","population":1235,"density_per_sqkm":290.90087467935274,"lng":-80.08308650003268,"lat":40.63763990840942}},{"type":"Feature","geometry":{"type":"Point","coordinates":[-80.00623306725261,40.56273852015942]},"properties":{"tract_id":"42003413400","population":4442,"density_per_sqkm":724.8305256533448,"lng":-80.00623306725261,"lat":40.56273852015942}},{"type":"Feature","geometry":{"type":"Point","coordinates":[-80.05112547086067,40.44654617475134]},"properties":{"tract_id":"42003281400","population":2471,"density_per_sqkm":1078.2499785065959,"lng":-80.05112547086067,"lat":40.44654617475134}},{"type":"Feature","geometry":{"type":"Point","coordinates":[-80.22494042857363,40.58292872856204]},"properties":{"tract_id":"42007604100","population":2669,"density_per_sqkm":818.9760173200792,"lng":-80.22494042857363,"lat":40.58292872856204}},{"type":"Feature","geometry":{"type":"Point","coordinates":[-80.22652018666646,40.641452866680225]},"properties":{"tract_id":"42007603700","population":3891,"density_per_sqkm":417.0227685410957,"lng":-80.22652018666646,"lat":40.641452866680225}},{"type":"Feature","geometry":{"type":"Point","coordinates":[-80.16905936363196,40.65143951893489]},"properties":{"tract_id":"42007603802","population":3277,"density_per_sqkm":221.073280123744,"lng":-80.16905936363196,"lat":40.65143951893489}},{"type":"Feature","geometry":{"type":"Point","coordinates":[-80.22125475774725,40.59982917526675]},"properties":{"tract_id":"42007604000","population":2784,"density_per_sqkm":926.6772352059522,"lng":-80.22125475774725,"lat":40.59982917526675}},{"type":"Feature","geometry":{"type":"Point","coordinates":[-80.3140291585024,40.39990074052309]},"properties":{"tract_id":"42125714000","population":2675,"density_per_sqkm":17.51549943106451,"lng":-80.3140291585024,"lat":40.39990074052309}},{"type":"Feature","geometry":{"type":"Point","coordinates":[-80.1303475549853,40.797096040012235]},"properties":{"tract_id":"42019911900","population":5100,"density_per_sqkm":376.8877278293961,"lng":-80.1303475549853,"lat":40.797096040012235}},{"type":"Feature","geometry":{"type":"Point","coordinates":[-79.89401131473484,40.42609670558112]},"properties":{"tract_id":"42003515401","population":2171,"density_per_sqkm":1273.8011183599854,"lng":-79.89401131473484,"lat":40.42609670558112}},{"type":"Feature","geometry":{"type":"Point","coordinates":[-79.93931611472635,40.39084817096958]},"properties":{"tract_id":"42003565300","population":1223,"density_per_sqkm":62.09263040652768,"lng":-79.93931611472635,"lat":40.39084817096958}},{"type":"Feature","geometry":{"type":"Point","coordinates":[-80.13702282029261,40.411177833601634]},"properties":{"tract_id":"42003458002","population":4582,"density_per_sqkm":148.6612522172108,"lng":-80.13702282029261,"lat":40.411177833601634}},{"type":"Feature","geometry":{"type":"Point","coordinates":[-80.1267106744755,40.382417530204314]},"properties":{"tract_id":"42003458001","population":4277,"density_per_sqkm":120.84852282378537,"lng":-80.1267106744755,"lat":40.382417530204314}},{"type":"Feature","geometry":{"type":"Point","coordinates":[-79.93964823489584,40.468669369125536]},"properties":{"tract_id":"42003101900","population":2698,"density_per_sqkm":2303.130827559353,"lng":-79.93964823489584,"lat":40.468669369125536}},{"type":"Feature","geometry":{"type":"Point","coordinates":[-79.91268562276994,40.46220873651793]},"properties":{"tract_id":"42003120900","population":1574,"density_per_sqkm":722.3807627978807,"lng":-79.91268562276994,"lat":40.46220873651793}},{"type":"Feature","geometry":{"type":"Point","coordinates":[-79.89524741417989,40.459059340240564]},"properties":{"tract_id":"42003130700","population":2068,"density_per_sqkm":707.2958283907282,"lng":-79.89524741417989,"lat":40.459059340240564}},{"type":"Feature","geometry":{"type":"Point","coordinates":[-79.89915290184176,40.43921961655902]},"properties":{"tract_id":"42003141200","population":4081,"density_per_sqkm":902.5069309403668,"lng":-79.89915290184176,"lat":40.43921961655902}},{"type":"Feature","geometry":{"type":"Point","coordinates":[-79.8930151046344,40.453130447688665]},"properties":{"tract_id":"42003130800","population":2177,"density_per_sqkm":944.5677979355996,"lng":-79.8930151046344,"lat":40.453130447688665}},{"type":"Feature","geometry":{"type":"Point","coordinates":[-79.87888656217153,40.44718170270904]},"properties":{"tract_id":"42003564800","population":1951,"density_per_sqkm":1226.4525316716436,"lng":-79.87888656217153,"lat":40.44718170270904}},{"type":"Feature","geometry":{"type":"Point","coordinates":[-79.98373664126446,40.437601458030585]},"properties":{"tract_id":"42003010302","population":4631,"density_per_sqkm":5520.178201386169,"lng":-79.98373664126446,"lat":40.437601458030585}},{"type":"Feature","geometry":{"type":"Point","coordinates":[-79.98474669141493,40.4345650740524]},"properties":{"tract_id":"42003010301","population":2028,"density_per_sqkm":2255.839708430031,"lng":-79.98474669141493,"lat":40.4345650740524}},{"type":"Feature","geometry":{"type":"Point","coordinates":[-79.87802545881691,40.437487947083234]},"properties":{"tract_id":"42003564700","population":2320,"density_per_sqkm":838.2402369146998,"lng":-79.87802545881691,"lat":40.437487947083234}},{"type":"Feature","geometry":{"type":"Point","coordinates":[-80.12233217479303,40.593972036582485]},"properties":{"tract_id":"42003412004","population":4055,"density_per_sqkm":98.15482943456853,"lng":-80.12233217479303,"lat":40.593972036582485}},{"type":"Feature","geometry":{"type":"Point","coordinates":[-79.858142896286,40.4027516889498]},"properties":{"tract_id":"42003513000","population":2243,"density_per_sqkm":351.63450946611823,"lng":-79.858142896286,"lat":40.4027516889498}},{"type":"Feature","geometry":{"type":"Point","coordinates":[-80.08469240158432,40.64068735131426]},"properties":{"tract_id":"42003411002","population":5903,"density_per_sqkm":357.88027921472104,"lng":-80.08469240158432,"lat":40.64068735131426}},{"type":"Feature","geometry":{"type":"Point","coordinates":[-80.13523394116845,40.69078215032804]},"properties":{"tract_id":"42019912101","population":4967,"density_per_sqkm":1300.3910750924708,"lng":-80.13523394116845,"lat":40.69078215032804}},{"type":"Feature","geometry":{"type":"Point","coordinates":[-80.09306772369611,40.40748098686472]},"properties":{"tract_id":"42003468800","population":2522,"density_per_sqkm":1363.418599224119,"lng":-80.09306772369611,"lat":40.40748098686472}},{"type":"Feature","geometry":{"type":"Point","coordinates":[-80.11969015869656,40.68922292062237]},"properties":{"tract_id":"42019912102","population":2634,"density_per_sqkm":967.7496684102894,"lng":-80.11969015869656,"lat":40.68922292062237}},{"type":"Feature","geometry":{"type":"Point","coordinates":[-80.11491965328074,40.68038626628385]},"properties":{"tract_id":"42019912200","population":3342,"density_per_sqkm":575.9725028133018,"lng":-80.11491965328074,"lat":40.68038626628385}},{"type":"Feature","geometry":{"type":"Point","coordinates":[-79.84263680290117,40.8593214744643]},"properties":{"tract_id":"42019911200","population":5404,"density_per_sqkm":86.94574423905718,"lng":-79.84263680290117,"lat":40.8593214744643}},{"type":"Feature","geometry":{"type":"Point","coordinates":[-80.07915469048518,40.40538829167245]},"properties":{"tract_id":"42003468900","population":3805,"density_per_sqkm":1467.9602903316718,"lng":-80.07915469048518,"lat":40.40538829167245}},{"type":"Feature","geometry":{"type":"Point","coordinates":[-80.0109515943855,40.58379586246918]},"properties":{"tract_id":"42003413500","population":6879,"density_per_sqkm":459.22086654186586,"lng":-80.0109515943855,"lat":40.58379586246918}},{"type":"Feature","geometry":{"type":"Point","coordinates":[-79.9719621327686,40.536872344638354]},"properties":{"tract_id":"42003426300","population":6249,"density_per_sqkm":828.4504754595932,"lng":-79.9719621327686,"lat":40.536872344638354}},{"type":"Feature","geometry":{"type":"Point","coordinates":[-80.02167300536249,40.396110473123784]},"properties":{"tract_id":"42003191900","population":2159,"density_per_sqkm":1673.8805450183581,"lng":-80.02167300536249,"lat":40.396110473123784}},{"type":"Feature","geometry":{"type":"Point","coordinates":[-80.17273446664574,40.54264653333361]},"properties":{"tract_id":"42003445500","population":3873,"density_per_sqkm":485.75837202498167,"lng":-80.17273446664574,"lat":40.54264653333361}},{"type":"Feature","geometry":{"type":"Point","coordinates":[-80.04688235105488,40.508521590410986]},"properties":{"tract_id":"42003429600","population":3601,"density_per_sqkm":457.2881251238135,"lng":-80.04688235105488,"lat":40.508521590410986}},{"type":"Feature","geometry":{"type":"Point","coordinates":[-79.89637907270858,40.555738456789115]},"properties":{"tract_id":"42003415002","population":2550,"density_per_sqkm":85.06179113577416,"lng":-79.89637907270858,"lat":40.555738456789115}},{"type":"Feature","geometry":{"type":"Point","coordinates":[-79.95519120471224,40.630018493435855]},"properties":{"tract_id":"42003408002","population":6129,"density_per_sqkm":364.95665820539875,"lng":-79.95519120471224,"lat":40.630018493435855}},{"type":"Feature","geometry":{"type":"Point","coordinates":[-79.9671477354056,40.49576055832486]},"properties":{"tract_id":"42003427200","population":4544,"density_per_sqkm":433.2547361726897,"lng":-79.9671477354056,"lat":40.49576055832486}},{"type":"Feature","geometry":{"type":"Point","coordinates":[-80.10042858737333,40.468823879284784]},"properties":{"tract_id":"42003460002","population":3716,"density_per_sqkm":270.0381797897723,"lng":-80.10042858737333,"lat":40.468823879284784}},{"type":"Feature","geometry":{"type":"Point","coordinates":[-80.05607595326623,40.50277589720186]},"properties":{"tract_id":"42003431400","population":1848,"density_per_sqkm":1384.3643443727483,"lng":-80.05607595326623,"lat":40.50277589720186}},{"type":"Feature","geometry":{"type":"Point","coordinates":[-80.03656811880391,40.52041217821035]},"properties":{"tract_id":"42003430200","population":4608,"density_per_sqkm":1361.9620377375504,"lng":-80.03656811880391,"lat":40.52041217821035}},{"type":"Feature","geometry":{"type":"Point","coordinates":[-80.04490603152628,40.531913939806756]},"properties":{"tract_id":"42003429300","population":6533,"density_per_sqkm":624.9439685399586,"lng":-80.04490603152628,"lat":40.531913939806756}},{"type":"Feature","geometry":{"type":"Point","coordinates":[-79.96476010963141,40.5802915848722]},"properties":{"tract_id":"42003414102","population":6953,"density_per_sqkm":319.7682744463736,"lng":-79.96476010963141,"lat":40.5802915848722}},{"type":"Feature","geometry":{"type":"Point","coordinates":[-80.02830605189152,40.40544836793524]},"properties":{"tract_id":"42003192000","population":3571,"density_per_sqkm":1495.012191858048,"lng":-80.02830605189152,"lat":40.40544836793524}},{"type":"Feature","geometry":{"type":"Point","coordinates":[-79.96287226301153,40.39837607818825]},"properties":{"tract_id":"42003480300","population":3680,"density_per_sqkm":350.21253019351843,"lng":-79.96287226301153,"lat":40.39837607818825}},{"type":"Feature","geometry":{"type":"Point","coordinates":[-80.08207592468104,40.57670558995765]},"properties":{"tract_id":"42003412002","population":4708,"density_per_sqkm":298.0002547383297,"lng":-80.08207592468104,"lat":40.57670558995765}},{"type":"Feature","geometry":{"type":"Point","coordinates":[-80.04284342515633,40.48302048504817]},"properties":{"tract_id":"42003270100","population":2459,"density_per_sqkm":1095.5404810607852,"lng":-80.04284342515633,"lat":40.48302048504817}},{"type":"Feature","geometry":{"type":"Point","coordinates":[-80.17776587341707,40.59736138184924]},"properties":{"tract_id":"42003439000","population":1615,"density_per_sqkm":51.40615833513612,"lng":-80.17776587341707,"lat":40.59736138184924}},{"type":"Feature","geometry":{"type":"Point","coordinates":[-79.92697128949104,40.77297728945501]},"properties":{"tract_id":"42019911600","population":4978,"density_per_sqkm":76.69490372437588,"lng":-79.92697128949104,"lat":40.77297728945501}},{"type":"Feature","geometry":{"type":"Point","coordinates":[-79.91571579040867,40.47316245508672]},"properties":{"tract_id":"42003110600","population":2346,"density_per_sqkm":2068.2701690108133,"lng":-79.91571579040867,"lat":40.47316245508672}},{"type":"Feature","geometry":{"type":"Point","coordinates":[-79.94882940475945,40.50019594897609]},"properties":{"tract_id":"42003425000","population":3413,"density_per_sqkm":867.5500898271147,"lng":-79.94882940475945,"lat":40.50019594897609}},{"type":"Feature","geometry":{"type":"Point","coordinates":[-79.99294381576875,40.39955415789982]},"properties":{"tract_id":"42003290100","population":1841,"density_per_sqkm":813.972386886831,"lng":-79.99294381576875,"lat":40.39955415789982}},{"type":"Feature","geometry":{"type":"Point","coordinates":[-79.85207846085535,40.46325398841802]},"properties":{"tract_id":"42003523200","population":4040,"density_per_sqkm":692.7929144266182,"lng":-79.85207846085535,"lat":40.46325398841802}},{"type":"Feature","geometry":{"type":"Point","coordinates":[-80.15963050223397,40.512513690601224]},"properties":{"tract_id":"42003450700","population":2882,"density_per_sqkm":794.4147794588972,"lng":-80.15963050223397,"lat":40.512513690601224}},{"type":"Feature","geometry":{"type":"Point","coordinates":[-80.16813347727344,40.51721948635522]},"properties":{"tract_id":"42003450800","population":2628,"density_per_sqkm":661.4773574504495,"lng":-80.16813347727344,"lat":40.51721948635522}},{"type":"Feature","geometry":{"type":"Point","coordinates":[-79.92911753446396,40.43370984479798]},"properties":{"tract_id":"42003141300","population":5136,"density_per_sqkm":4554.816109741112,"lng":-79.92911753446396,"lat":40.43370984479798}},{"type":"Feature","geometry":{"type":"Point","coordinates":[-79.99328096132842,40.412971933750235]},"properties":{"tract_id":"42003300100","population":4188,"density_per_sqkm":4221.6669818639,"lng":-79.99328096132842,"lat":40.412971933750235}},{"type":"Feature","geometry":{"type":"Point","coordinates":[-79.86535387144455,40.44837708095146]},"properties":{"tract_id":"42003561400","population":3566,"density_per_sqkm":1127.9848208024198,"lng":-79.86535387144455,"lat":40.44837708095146}},{"type":"Feature","geometry":{"type":"Point","coordinates":[-79.86748498808545,40.40376625592815]},"properties":{"tract_id":"42003513800","population":1814,"density_per_sqkm":474.81727620003466,"lng":-79.86748498808545,"lat":40.40376625592815}},{"type":"Feature","geometry":{"type":"Point","coordinates":[-80.00572512018817,40.39375187498544]},"properties":{"tract_id":"42003320600","population":2232,"density_per_sqkm":949.3043615611176,"lng":-80.00572512018817,"lat":40.39375187498544}},{"type":"Feature","geometry":{"type":"Point","coordinates":[-79.95972482160504,40.43416534056952]},"properties":{"tract_id":"42003040900","population":3722,"density_per_sqkm":1453.7404986804388,"lng":-79.95972482160504,"lat":40.43416534056952}},{"type":"Feature","geometry":{"type":"Point","coordinates":[-79.86986102259243,40.501938141934176]},"properties":{"tract_id":"42003421100","population":4959,"density_per_sqkm":273.7842638388222,"lng":-79.86986102259243,"lat":40.501938141934176}},{"type":"Feature","geometry":{"type":"Point","coordinates":[-79.89361163337927,40.48931785834163]},"properties":{"tract_id":"42003980000","population":0,"density_per_sqkm":0,"lng":-79.89361163337927,"lat":40.48931785834163}},{"type":"Feature","geometry":{"type":"Point","coordinates":[-80.0848980984511,40.42775281865214]},"properties":{"tract_id":"42003564100","population":969,"density_per_sqkm":166.40007896358446,"lng":-80.0848980984511,"lat":40.42775281865214}},{"type":"Feature","geometry":{"type":"Point","coordinates":[-79.99405627694375,40.424071313851954]},"properties":{"tract_id":"42003180300","population":1966,"density_per_sqkm":1218.8063043168843,"lng":-79.99405627694375,"lat":40.424071313851954}},{"type":"Feature","geometry":{"type":"Point","coordinates":[-80.00217338953942,40.540591216851126]},"properties":{"tract_id":"42003429201","population":4978,"density_per_sqkm":679.7151811416068,"lng":-80.00217338953942,"lat":40.540591216851126}},{"type":"Feature","geometry":{"type":"Point","coordinates":[-79.9450163948754,40.425267123087956]},"properties":{"tract_id":"42003151600","population":2425,"density_per_sqkm":1831.799419766786,"lng":-79.9450163948754,"lat":40.425267123087956}},{"type":"Feature","geometry":{"type":"Point","coordinates":[-79.93348034374644,40.42348390626362]},"properties":{"tract_id":"42003151700","population":4919,"density_per_sqkm":3576.494384443193,"lng":-79.93348034374644,"lat":40.42348390626362}},{"type":"Feature","geometry":{"type":"Point","coordinates":[-80.21015148258805,40.57832422387942]},"properties":{"tract_id":"42003447000","population":1655,"density_per_sqkm":204.64392741632014,"lng":-80.21015148258805,"lat":40.57832422387942}},{"type":"Feature","geometry":{"type":"Point","coordinates":[-79.91667879912981,40.396840493461546]},"properties":{"tract_id":"42003482500","population":1747,"density_per_sqkm":279.7128650707514,"lng":-79.91667879912981,"lat":40.396840493461546}},{"type":"Feature","geometry":{"type":"Point","coordinates":[-80.00464641801395,40.463795301609615]},"properties":{"tract_id":"42003250900","population":1268,"density_per_sqkm":1324.244155512049,"lng":-80.00464641801395,"lat":40.463795301609615}},{"type":"Feature","geometry":{"type":"Point","coordinates":[-79.97940361906315,40.4539487857299]},"properties":{"tract_id":"42003020300","population":1471,"density_per_sqkm":262.81431783611833,"lng":-79.97940361906315,"lat":40.4539487857299}},{"type":"Feature","geometry":{"type":"Point","coordinates":[-79.94403685087072,40.517034440669434]},"properties":{"tract_id":"42003426700","population":2218,"density_per_sqkm":326.0043293746889,"lng":-79.94403685087072,"lat":40.517034440669434}},{"type":"Feature","geometry":{"type":"Point","coordinates":[-79.95028399576314,40.53862431063496]},"properties":{"tract_id":"42003426800","population":5225,"density_per_sqkm":756.8260217657554,"lng":-79.95028399576314,"lat":40.53862431063496}},{"type":"Feature","geometry":{"type":"Point","coordinates":[-80.08600628393593,40.71922122635067]},"properties":{"tract_id":"42019912301","population":6262,"density_per_sqkm":322.27272689701863,"lng":-80.08600628393593,"lat":40.71922122635067}},{"type":"Feature","geometry":{"type":"Point","coordinates":[-80.03173950753666,40.484061964829124]},"properties":{"tract_id":"42003270800","population":2375,"density_per_sqkm":927.0713801241322,"lng":-80.03173950753666,"lat":40.484061964829124}},{"type":"Feature","geometry":{"type":"Point","coordinates":[-80.03556432621096,40.398855638295984]},"properties":{"tract_id":"42003472100","population":2157,"density_per_sqkm":1957.2522757426839,"lng":-80.03556432621096,"lat":40.398855638295984}},{"type":"Feature","geometry":{"type":"Point","coordinates":[-79.9277178274276,40.48348101771129]},"properties":{"tract_id":"42003101400","population":3301,"density_per_sqkm":712.2816131739625,"lng":-79.9277178274276,"lat":40.48348101771129}},{"type":"Feature","geometry":{"type":"Point","coordinates":[-79.99165136500481,40.48603275284595]},"properties":{"tract_id":"42003428200","population":2028,"density_per_sqkm":259.12980193751156,"lng":-79.99165136500481,"lat":40.48603275284595}},{"type":"Feature","geometry":{"type":"Point","coordinates":[-79.86528536480908,40.6292355504916]},"properties":{"tract_id":"42003407001","population":5793,"density_per_sqkm":86.88264609575513,"lng":-79.86528536480908,"lat":40.6292355504916}},{"type":"Feature","geometry":{"type":"Point","coordinates":[-80.06699911109858,40.4980711578993]},"properties":{"tract_id":"42003432400","population":2452,"density_per_sqkm":1470.9525847824757,"lng":-80.06699911109858,"lat":40.4980711578993}},{"type":"Feature","geometry":{"type":"Point","coordinates":[-79.84147745160661,40.50416503872012]},"properties":{"tract_id":"42003524000","population":2629,"density_per_sqkm":990.7479418409453,"lng":-79.84147745160661,"lat":40.50416503872012}},{"type":"Feature","geometry":{"type":"Point","coordinates":[-79.83185938570293,40.54683748569326]},"properties":{"tract_id":"42003419000","population":3108,"density_per_sqkm":117.37474321591549,"lng":-79.83185938570293,"lat":40.54683748569326}},{"type":"Feature","geometry":{"type":"Point","coordinates":[-79.9411032391313,40.43457075541519]},"properties":{"tract_id":"42003980500","population":19,"density_per_sqkm":9.003325079022682,"lng":-79.9411032391313,"lat":40.43457075541519}},{"type":"Feature","geometry":{"type":"Point","coordinates":[-79.90725562937,40.43196039410551]},"properties":{"tract_id":"42003980300","population":0,"density_per_sqkm":0,"lng":-79.90725562937,"lat":40.43196039410551}},{"type":"Feature","geometry":{"type":"Point","coordinates":[-79.90221779197927,40.49229331544179]},"properties":{"tract_id":"42003423000","population":2890,"density_per_sqkm":1706.0874727243263,"lng":-79.90221779197927,"lat":40.49229331544179}},{"type":"Feature","geometry":{"type":"Point","coordinates":[-80.02019918750888,40.48258564904867]},"properties":{"tract_id":"42003980400","population":0,"density_per_sqkm":0,"lng":-80.02019918750888,"lat":40.48258564904867}},{"type":"Feature","geometry":{"type":"Point","coordinates":[-79.9200138666551,40.442397140721454]},"properties":{"tract_id":"42003140300","population":3405,"density_per_sqkm":2550.7798666461467,"lng":-79.9200138666551,"lat":40.442397140721454}},{"type":"Feature","geometry":{"type":"Point","coordinates":[-79.91564115251639,40.448779983060305]},"properties":{"tract_id":"42003140400","population":2254,"density_per_sqkm":1762.0502034426747,"lng":-79.91564115251639,"lat":40.448779983060305}},{"type":"Feature","geometry":{"type":"Point","coordinates":[-80.27464428351506,40.61167732473502]},"properties":{"tract_id":"42007604600","population":2772,"density_per_sqkm":545.9944397180578,"lng":-80.27464428351506,"lat":40.61167732473502}},{"type":"Feature","geometry":{"type":"Point","coordinates":[-80.27547011606237,40.60609801784369]},"properties":{"tract_id":"42007604700","population":1477,"density_per_sqkm":905.6922667079514,"lng":-80.27547011606237,"lat":40.60609801784369}},{"type":"Feature","geometry":{"type":"Point","coordinates":[-80.21640266665985,40.571264409843366]},"properties":{"tract_id":"42003448000","population":1125,"density_per_sqkm":144.77247552741082,"lng":-80.21640266665985,"lat":40.571264409843366}},{"type":"Feature","geometry":{"type":"Point","coordinates":[-80.05032457541031,40.49065029608781]},"properties":{"tract_id":"42003431100","population":3244,"density_per_sqkm":2066.657399272926,"lng":-80.05032457541031,"lat":40.49065029608781}},{"type":"Feature","geometry":{"type":"Point","coordinates":[-80.0676385374074,40.50342180272699]},"properties":{"tract_id":"42003432300","population":2287,"density_per_sqkm":1602.4939067261162,"lng":-80.0676385374074,"lat":40.50342180272699}},{"type":"Feature","geometry":{"type":"Point","coordinates":[-80.2337944026762,40.55337193959818]},"properties":{"tract_id":"42003449000","population":2455,"density_per_sqkm":212.10855768726955,"lng":-80.2337944026762,"lat":40.55337193959818}},{"type":"Feature","geometry":{"type":"Point","coordinates":[-79.88907996350318,40.430863591258294]},"properties":{"tract_id":"42003516100","population":1416,"density_per_sqkm":1177.1117443103826,"lng":-79.88907996350318,"lat":40.430863591258294}},{"type":"Feature","geometry":{"type":"Point","coordinates":[-79.88000659602156,40.43147012583115]},"properties":{"tract_id":"42003516200","population":1688,"density_per_sqkm":1229.8907162085654,"lng":-79.88000659602156,"lat":40.43147012583115}},{"type":"Feature","geometry":{"type":"Point","coordinates":[-79.86602245762943,40.42175539322678]},"properties":{"tract_id":"42003517000","population":1625,"density_per_sqkm":260.96491090863515,"lng":-79.86602245762943,"lat":40.42175539322678}},{"type":"Feature","geometry":{"type":"Point","coordinates":[-80.22869445519956,40.59521388805579]},"properties":{"tract_id":"42007604200","population":1484,"density_per_sqkm":825.4967948208504,"lng":-80.22869445519956,"lat":40.59521388805579}},{"type":"Feature","geometry":{"type":"Point","coordinates":[-80.2519111047051,40.62382048690722]},"properties":{"tract_id":"42007604500","population":2093,"density_per_sqkm":307.1339640517038,"lng":-80.2519111047051,"lat":40.62382048690722}},{"type":"Feature","geometry":{"type":"Point","coordinates":[-80.02969469909212,40.535562419448794]},"properties":{"tract_id":"42003429400","population":4375,"density_per_sqkm":549.3557837710432,"lng":-80.02969469909212,"lat":40.535562419448794}},{"type":"Feature","geometry":{"type":"Point","coordinates":[-79.98127904051147,40.474037378403345]},"properties":{"tract_id":"42003428100","population":1200,"density_per_sqkm":649.83838965781,"lng":-79.98127904051147,"lat":40.474037378403345}},{"type":"Feature","geometry":{"type":"Point","coordinates":[-80.03357826203238,40.50072077539712]},"properties":{"tract_id":"42003429700","population":2252,"density_per_sqkm":337.3655881248241,"lng":-80.03357826203238,"lat":40.50072077539712}},{"type":"Feature","geometry":{"type":"Point","coordinates":[-80.02717875710051,40.51438215255533]},"properties":{"tract_id":"42003430100","population":2052,"density_per_sqkm":1309.8934191937562,"lng":-80.02717875710051,"lat":40.51438215255533}},{"type":"Feature","geometry":{"type":"Point","coordinates":[-79.88770656411576,40.40034739316673]},"properties":{"tract_id":"42003485000","population":1232,"density_per_sqkm":566.5713079398648,"lng":-79.88770656411576,"lat":40.40034739316673}},{"type":"Feature","geometry":{"type":"Point","coordinates":[-79.95487296108526,40.4513769499999]},"properties":{"tract_id":"42003562000","population":2652,"density_per_sqkm":1554.5895398933985,"lng":-79.95487296108526,"lat":40.4513769499999}},{"type":"Feature","geometry":{"type":"Point","coordinates":[-80.17849268187798,40.62442517508252]},"properties":{"tract_id":"42007603803","population":2955,"density_per_sqkm":61.22673089405133,"lng":-80.17849268187798,"lat":40.62442517508252}},{"type":"Feature","geometry":{"type":"Point","coordinates":[-80.33893050002773,40.532538242867766]},"properties":{"tract_id":"42007605001","population":2208,"density_per_sqkm":20.07805002777907,"lng":-80.33893050002773,"lat":40.532538242867766}},{"type":"Feature","geometry":{"type":"Point","coordinates":[-80.2555754902331,40.58049959887422]},"properties":{"tract_id":"42007604800","population":4757,"density_per_sqkm":203.59320495378972,"lng":-80.2555754902331,"lat":40.58049959887422}},{"type":"Feature","geometry":{"type":"Point","coordinates":[-80.26897240857336,40.5766681419277]},"properties":{"tract_id":"42007604902","population":4297,"density_per_sqkm":219.0464747930939,"lng":-80.26897240857336,"lat":40.5766681419277}},{"type":"Feature","geometry":{"type":"Point","coordinates":[-80.03980066433554,40.46756687413717]},"properties":{"tract_id":"42003980900","population":55,"density_per_sqkm":10.962579618026215,"lng":-80.03980066433554,"lat":40.46756687413717}},{"type":"Feature","geometry":{"type":"Point","coordinates":[-80.02743976280887,40.454266647454716]},"properties":{"tract_id":"42003980600","population":12,"density_per_sqkm":3.2232227110562146,"lng":-80.02743976280887,"lat":40.454266647454716}},{"type":"Feature","geometry":{"type":"Point","coordinates":[-79.95666893078463,40.44470271863253]},"properties":{"tract_id":"42003982200","population":5498,"density_per_sqkm":5008.981779867304,"lng":-79.95666893078463,"lat":40.44470271863253}},{"type":"Feature","geometry":{"type":"Point","coordinates":[-80.01194083534166,40.43700095293572]},"properties":{"tract_id":"42003980700","population":47,"density_per_sqkm":9.253801313698682,"lng":-80.01194083534166,"lat":40.43700095293572}},{"type":"Feature","geometry":{"type":"Point","coordinates":[-80.00978381967693,40.45196067760447]},"properties":{"tract_id":"42003562700","population":1867,"density_per_sqkm":1349.2213876501733,"lng":-80.00978381967693,"lat":40.45196067760447}},{"type":"Feature","geometry":{"type":"Point","coordinates":[-80.11993607176757,40.52285705980914]},"properties":{"tract_id":"42003563800","population":3813,"density_per_sqkm":96.96795190321568,"lng":-80.11993607176757,"lat":40.52285705980914}},{"type":"Feature","geometry":{"type":"Point","coordinates":[-80.14898332006909,40.552197854867316]},"properties":{"tract_id":"42003563300","population":1459,"density_per_sqkm":41.151769387395,"lng":-80.14898332006909,"lat":40.552197854867316}},{"type":"Feature","geometry":{"type":"Point","coordinates":[-80.24710874128853,40.53454929601579]},"properties":{"tract_id":"42003451104","population":4128,"density_per_sqkm":277.6439636592994,"lng":-80.24710874128853,"lat":40.53454929601579}},{"type":"Feature","geometry":{"type":"Point","coordinates":[-80.23297519084169,40.51952925953542]},"properties":{"tract_id":"42003451105","population":5697,"density_per_sqkm":283.5724687678621,"lng":-80.23297519084169,"lat":40.51952925953542}},{"type":"Feature","geometry":{"type":"Point","coordinates":[-80.23090960537017,40.419065098491735]},"properties":{"tract_id":"42003564000","population":7292,"density_per_sqkm":81.2801676343127,"lng":-80.23090960537017,"lat":40.419065098491735}},{"type":"Feature","geometry":{"type":"Point","coordinates":[-80.18686148528413,40.42690192894668]},"properties":{"tract_id":"42003453003","population":1930,"density_per_sqkm":58.94989470155275,"lng":-80.18686148528413,"lat":40.42690192894668}},{"type":"Feature","geometry":{"type":"Point","coordinates":[-80.08093500000999,40.5064991276677]},"properties":{"tract_id":"42003434000","population":1878,"density_per_sqkm":988.3347423949903,"lng":-80.08093500000999,"lat":40.5064991276677}},{"type":"Feature","geometry":{"type":"Point","coordinates":[-80.09437870712455,40.51222843573321]},"properties":{"tract_id":"42003435000","population":2524,"density_per_sqkm":902.7667119689119,"lng":-80.09437870712455,"lat":40.51222843573321}},{"type":"Feature","geometry":{"type":"Point","coordinates":[-79.91063370248712,40.83446216486828]},"properties":{"tract_id":"42019903100","population":2530,"density_per_sqkm":135.2547971957593,"lng":-79.91063370248712,"lat":40.83446216486828}},{"type":"Feature","geometry":{"type":"Point","coordinates":[-79.98655510988638,40.411724884636804]},"properties":{"tract_id":"42003481000","population":3357,"density_per_sqkm":2538.0836981042057,"lng":-79.98655510988638,"lat":40.411724884636804}},{"type":"Feature","geometry":{"type":"Point","coordinates":[-80.1202450863776,40.72090903655009]},"properties":{"tract_id":"42019912001","population":5760,"density_per_sqkm":295.31887320516495,"lng":-80.1202450863776,"lat":40.72090903655009}},{"type":"Feature","geometry":{"type":"Point","coordinates":[-79.93153317158934,40.701481017734615]},"properties":{"tract_id":"42019912800","population":6928,"density_per_sqkm":111.69201185702838,"lng":-79.93153317158934,"lat":40.701481017734615}},{"type":"Feature","geometry":{"type":"Point","coordinates":[-80.07560077181029,40.691119397176536]},"properties":{"tract_id":"42019912304","population":4237,"density_per_sqkm":318.86422329762433,"lng":-80.07560077181029,"lat":40.691119397176536}},{"type":"Feature","geometry":{"type":"Point","coordinates":[-80.06510064479929,40.685689289598024]},"properties":{"tract_id":"42019912303","population":2903,"density_per_sqkm":759.7403312756351,"lng":-80.06510064479929,"lat":40.685689289598024}},{"type":"Feature","geometry":{"type":"Point","coordinates":[-79.94910997102346,40.472561507258725]},"properties":{"tract_id":"42003981000","population":0,"density_per_sqkm":0,"lng":-79.94910997102346,"lat":40.472561507258725}},{"type":"Feature","geometry":{"type":"Point","coordinates":[-80.25281810404357,40.61319665316542]},"properties":{"tract_id":"42007605700","population":2856,"density_per_sqkm":116.3776076981362,"lng":-80.25281810404357,"lat":40.61319665316542}},{"type":"Feature","geometry":{"type":"Point","coordinates":[-80.27876437066821,40.71002910424467]},"properties":{"tract_id":"42007605600","population":3300,"density_per_sqkm":177.55942282372354,"lng":-80.27876437066821,"lat":40.71002910424467}},{"type":"Feature","geometry":{"type":"Point","coordinates":[-80.10594071125719,40.483854630291816]},"properties":{"tract_id":"42003460001","population":4883,"density_per_sqkm":410.4523176050627,"lng":-80.10594071125719,"lat":40.483854630291816}},{"type":"Feature","geometry":{"type":"Point","coordinates":[-80.214389258802,40.71172504752494]},"properties":{"tract_id":"42007601802","population":3439,"density_per_sqkm":62.38503379469588,"lng":-80.214389258802,"lat":40.71172504752494}},{"type":"Feature","geometry":{"type":"Point","coordinates":[-80.2010776954373,40.716541311072845]},"properties":{"tract_id":"42007601801","population":3718,"density_per_sqkm":44.307139892318645,"lng":-80.2010776954373,"lat":40.716541311072845}}]}