{"type":"FeatureCollection","features":[{"type":"Feature","geometry":{"type":"Point","coordinates":[-86.84143532587478,40.43845465335803]},"properties":{"tract_id":"18157010800","population":5401,"density_per_sqkm":77.76975326248765,"lng":-86.84143532587478,"lat":40.43845465335803}},{"type":"Feature","geometry":{"type":"Point","coordinates":[-86.9259683766421,40.4206544545546]},"properties":{"tract_id":"18157010500","population":1512,"density_per_sqkm":2461.33315889313,"lng":-86.9259683766421,"lat":40.4206544545546}},{"type":"Feature","geometry":{"type":"Point","coordinates":[-86.80610388346257,40.50659824847151]},"properties":{"tract_id":"18157010100","population":5909,"density_per_sqkm":34.740663602668604,"lng":-86.80610388346257,"lat":40.50659824847151}},{"type":"Feature","geometry":{"type":"Point","coordinates":[-86.87580751908177,40.38506504579327]},"properties":{"tract_id":"18157001400","population":3183,"density_per_sqkm":1017.0023922967754,"lng":-86.87580751908177,"lat":40.38506504579327}},{"type":"Feature","geometry":{"type":"Point","coordinates":[-86.85634138433105,40.34265273310825]},"properties":{"tract_id":"18157010700","population":6328,"density_per_sqkm":67.51642605294518,"lng":-86.85634138433105,"lat":40.34265273310825}},{"type":"Feature","geometry":{"type":"Point","coordinates":[-86.75640411136631,40.43211058031285]},"properties":{"tract_id":"18157010901","population":9050,"density_per_sqkm":96.02797915840519,"lng":-86.75640411136631,"lat":40.43211058031285}},{"type":"Feature","geometry":{"type":"Point","coordinates":[-87.00012095097846,40.498802903048734]},"properties":{"tract_id":"18157010201","population":5395,"density_per_sqkm":21.50104356609793,"lng":-87.00012095097846,"lat":40.498802903048734}},{"type":"Feature","geometry":{"type":"Point","coordinates":[-86.75070701003472,40.66371665161845]},"properties":{"tract_id":"18015959500","population":2627,"density_per_sqkm":48.57902849349365,"lng":-86.75070701003472,"lat":40.66371665161845}},{"type":"Feature","geometry":{"type":"Point","coordinates":[-86.66241156911377,40.67784205745826]},"properties":{"tract_id":"18015959400","population":2552,"density_per_sqkm":6.29702342238491,"lng":-86.66241156911377,"lat":40.67784205745826}},{"type":"Feature","geometry":{"type":"Point","coordinates":[-86.91085982141512,40.420517750000094]},"properties":{"tract_id":"18157005500","population":5366,"density_per_sqkm":2892.1106237391305,"lng":-86.91085982141512,"lat":40.420517750000094}},{"type":"Feature","geometry":{"type":"Point","coordinates":[-86.86602795360707,40.43106928478149]},"properties":{"tract_id":"18157000300","population":3444,"density_per_sqkm":1147.725444828877,"lng":-86.86602795360707,"lat":40.43106928478149}},{"type":"Feature","geometry":{"type":"Point","coordinates":[-86.88674678076487,40.425346465395734]},"properties":{"tract_id":"18157000400","population":3978,"density_per_sqkm":1194.0449852619372,"lng":-86.88674678076487,"lat":40.425346465395734}},{"type":"Feature","geometry":{"type":"Point","coordinates":[-86.87319785582687,40.419275511647186]},"properties":{"tract_id":"18157000700","population":3482,"density_per_sqkm":1297.6022592726204,"lng":-86.87319785582687,"lat":40.419275511647186}},{"type":"Feature","geometry":{"type":"Point","coordinates":[-86.86381518593035,40.40565645225361]},"properties":{"tract_id":"18157000800","population":1836,"density_per_sqkm":667.2544145220334,"lng":-86.86381518593035,"lat":40.40565645225361}},{"type":"Feature","geometry":{"type":"Point","coordinates":[-86.90904555988413,40.38136172425456]},"properties":{"tract_id":"18157001501","population":5375,"density_per_sqkm":612.9704163005772,"lng":-86.90904555988413,"lat":40.38136172425456}},{"type":"Feature","geometry":{"type":"Point","coordinates":[-86.89240869733986,40.376675425288234]},"properties":{"tract_id":"18157001502","population":6032,"density_per_sqkm":921.2738877523603,"lng":-86.89240869733986,"lat":40.376675425288234}},{"type":"Feature","geometry":{"type":"Point","coordinates":[-86.87977315216443,40.43458384058804]},"properties":{"tract_id":"18157000200","population":1860,"density_per_sqkm":1690.092466705208,"lng":-86.87977315216443,"lat":40.43458384058804}},{"type":"Feature","geometry":{"type":"Point","coordinates":[-86.8859388364297,40.604837287769605]},"properties":{"tract_id":"18181958800","population":3345,"density_per_sqkm":17.10587856412837,"lng":-86.8859388364297,"lat":40.604837287769605}},{"type":"Feature","geometry":{"type":"Point","coordinates":[-86.8363979403268,40.721061725531506]},"properties":{"tract_id":"18181958400","population":2215,"density_per_sqkm":6.842685355621898,"lng":-86.8363979403268,"lat":40.721061725531506}},{"type":"Feature","geometry":{"type":"Point","coordinates":[-86.9876956451912,40.70642807204329]},"properties":{"tract_id":"18181958300","population":2384,"density_per_sqkm":4.100085848824765,"lng":-86.9876956451912,"lat":40.70642807204329}},{"type":"Feature","geometry":{"type":"Point","coordinates":[-86.90528682316548,40.46023379268552]},"properties":{"tract_id":"18157005102","population":5173,"density_per_sqkm":971.5285682851446,"lng":-86.90528682316548,"lat":40.46023379268552}},{"type":"Feature","geometry":{"type":"Point","coordinates":[-86.92713794145577,40.46232962438036]},"properties":{"tract_id":"18157005101","population":2911,"density_per_sqkm":829.9493863639083,"lng":-86.92713794145577,"lat":40.46232962438036}},{"type":"Feature","geometry":{"type":"Point","coordinates":[-86.89839217001271,40.406795763336646]},"properties":{"tract_id":"18157011100","population":4591,"density_per_sqkm":479.04099552563264,"lng":-86.89839217001271,"lat":40.406795763336646}},{"type":"Feature","geometry":{"type":"Point","coordinates":[-86.92485811904533,40.42789757142458]},"properties":{"tract_id":"18157010400","population":7685,"density_per_sqkm":8535.515327420635,"lng":-86.92485811904533,"lat":40.42789757142458}},{"type":"Feature","geometry":{"type":"Point","coordinates":[-86.8815172868806,40.43807741392934]},"properties":{"tract_id":"18157000100","population":2859,"density_per_sqkm":361.32713757934323,"lng":-86.8815172868806,"lat":40.43807741392934}},{"type":"Feature","geometry":{"type":"Point","coordinates":[-86.9126855140982,40.43322538243943]},"properties":{"tract_id":"18157011200","population":6992,"density_per_sqkm":1314.7255474711455,"lng":-86.9126855140982,"lat":40.43322538243943}},{"type":"Feature","geometry":{"type":"Point","coordinates":[-86.93612915217503,40.45338725774754]},"properties":{"tract_id":"18157010208","population":5274,"density_per_sqkm":539.6067566578708,"lng":-86.93612915217503,"lat":40.45338725774754}},{"type":"Feature","geometry":{"type":"Point","coordinates":[-86.91326465959595,40.427551858118306]},"properties":{"tract_id":"18157005401","population":3842,"density_per_sqkm":4140.655851252769,"lng":-86.91326465959595,"lat":40.427551858118306}},{"type":"Feature","geometry":{"type":"Point","coordinates":[-86.88435444124053,40.36239123741432]},"properties":{"tract_id":"18157001603","population":6286,"density_per_sqkm":437.50838878467664,"lng":-86.88435444124053,"lat":40.36239123741432}},{"type":"Feature","geometry":{"type":"Point","coordinates":[-86.8505554124319,40.38680292217057]},"properties":{"tract_id":"18157001702","population":3251,"density_per_sqkm":335.1184624385621,"lng":-86.8505554124319,"lat":40.38680292217057}},{"type":"Feature","geometry":{"type":"Point","coordinates":[-86.913538645046,40.36267385802465]},"properties":{"tract_id":"18157001601","population":1601,"density_per_sqkm":317.1564584900546,"lng":-86.913538645046,"lat":40.36267385802465}},{"type":"Feature","geometry":{"type":"Point","coordinates":[-86.84156258028509,40.395006715015505]},"properties":{"tract_id":"18157001701","population":4114,"density_per_sqkm":868.5744087811781,"lng":-86.84156258028509,"lat":40.395006715015505}},{"type":"Feature","geometry":{"type":"Point","coordinates":[-86.97516284321033,40.45445856356003]},"properties":{"tract_id":"18157010205","population":5302,"density_per_sqkm":563.1571565662615,"lng":-86.97516284321033,"lat":40.45445856356003}},{"type":"Feature","geometry":{"type":"Point","coordinates":[-86.87566006295664,40.256182400409855]},"properties":{"tract_id":"18157011000","population":4245,"density_per_sqkm":13.022907151299394,"lng":-86.87566006295664,"lat":40.256182400409855}},{"type":"Feature","geometry":{"type":"Point","coordinates":[-86.76182619401887,40.34104898011234]},"properties":{"tract_id":"18157010902","population":3913,"density_per_sqkm":41.35634391353115,"lng":-86.76182619401887,"lat":40.34104898011234}},{"type":"Feature","geometry":{"type":"Point","coordinates":[-86.84809096772204,40.4373196187732]},"properties":{"tract_id":"18157001900","population":4222,"density_per_sqkm":240.38593235933246,"lng":-86.84809096772204,"lat":40.4373196187732}},{"type":"Feature","geometry":{"type":"Point","coordinates":[-87.00256049175462,40.392757231944124]},"properties":{"tract_id":"18157010600","population":5545,"density_per_sqkm":20.96727517054085,"lng":-87.00256049175462,"lat":40.392757231944124}},{"type":"Feature","geometry":{"type":"Point","coordinates":[-87.22137426135258,40.254635120820836]},"properties":{"tract_id":"18045957600","population":2557,"density_per_sqkm":6.202341160950127,"lng":-87.22137426135258,"lat":40.254635120820836}},{"type":"Feature","geometry":{"type":"Point","coordinates":[-86.87197795546895,40.40726202832926]},"properties":{"tract_id":"18157001200","population":3048,"density_per_sqkm":1417.0728085104738,"lng":-86.87197795546895,"lat":40.40726202832926}},{"type":"Feature","geometry":{"type":"Point","coordinates":[-86.89017054549845,40.405577850620105]},"properties":{"tract_id":"18157001000","population":1411,"density_per_sqkm":919.4020208262043,"lng":-86.89017054549845,"lat":40.405577850620105}},{"type":"Feature","geometry":{"type":"Point","coordinates":[-86.8819615487414,40.41024142560923]},"properties":{"tract_id":"18157001100","population":3056,"density_per_sqkm":1698.6488891928484,"lng":-86.8819615487414,"lat":40.41024142560923}},{"type":"Feature","geometry":{"type":"Point","coordinates":[-87.2362209675488,40.38916184976496]},"properties":{"tract_id":"18171951001","population":2924,"density_per_sqkm":6.008528258485773,"lng":-87.2362209675488,"lat":40.38916184976496}},{"type":"Feature","geometry":{"type":"Point","coordinates":[-87.18515643424598,40.58201458342869]},"properties":{"tract_id":"18007100100","population":3258,"density_per_sqkm":5.809347036195095,"lng":-87.18515643424598,"lat":40.58201458342869}},{"type":"Feature","geometry":{"type":"Point","coordinates":[-86.9519893028657,40.47872299737073]},"properties":{"tract_id":"18157010206","population":6790,"density_per_sqkm":341.92246534466943,"lng":-86.9519893028657,"lat":40.47872299737073}},{"type":"Feature","geometry":{"type":"Point","coordinates":[-86.89570860187598,40.354943796220034]},"properties":{"tract_id":"18157001602","population":3279,"density_per_sqkm":771.7290257353853,"lng":-86.89570860187598,"lat":40.354943796220034}},{"type":"Feature","geometry":{"type":"Point","coordinates":[-86.90164519353985,40.423790161304176]},"properties":{"tract_id":"18157005402","population":2278,"density_per_sqkm":2219.9169321330032,"lng":-86.90164519353985,"lat":40.423790161304176}},{"type":"Feature","geometry":{"type":"Point","coordinates":[-86.91027417907662,40.48671485582376]},"properties":{"tract_id":"18157010207","population":3788,"density_per_sqkm":117.92815921422259,"lng":-86.91027417907662,"lat":40.48671485582376}},{"type":"Feature","geometry":{"type":"Point","coordinates":[-86.94932617404248,40.443259436698966]},"properties":{"tract_id":"18157010209","population":3832,"density_per_sqkm":299.89206663048884,"lng":-86.94932617404248,"lat":40.443259436698966}},{"type":"Feature","geometry":{"type":"Point","coordinates":[-86.8469994258262,40.417333095708365]},"properties":{"tract_id":"18157001800","population":4031,"density_per_sqkm":500.40899660354376,"lng":-86.8469994258262,"lat":40.417333095708365}},{"type":"Feature","geometry":{"type":"Point","coordinates":[-86.91274452918759,40.44416613868366]},"properties":{"tract_id":"18157005200","population":4601,"density_per_sqkm":714.3332781267267,"lng":-86.91274452918759,"lat":40.44416613868366}},{"type":"Feature","geometry":{"type":"Point","coordinates":[-86.88079753572701,40.392112825881846]},"properties":{"tract_id":"18157001300","population":4884,"density_per_sqkm":1120.8328153024925,"lng":-86.88079753572701,"lat":40.392112825881846}}]}