{"type":"FeatureCollection","features":[{"type":"Feature","geometry":{"type":"Point","coordinates":[6.62843,51.451283]},"properties":{"tract_id":"osm_25763730","population":105102,"density_per_sqkm":0,"lng":6.62843,"lat":51.451283,"name":"Moers","place":"city"}},{"type":"Feature","geometry":{"type":"Point","coordinates":[6.6257208,51.4748613]},"properties":{"tract_id":"osm_26112311","population":15000,"density_per_sqkm":0,"lng":6.6257208,"lat":51.4748613,"name":"Utfort","place":"suburb"}},{"type":"Feature","geometry":{"type":"Point","coordinates":[6.6284906,51.4834946]},"properties":{"tract_id":"osm_26112312","population":15000,"density_per_sqkm":0,"lng":6.6284906,"lat":51.4834946,"name":"Eick West","place":"suburb"}},{"type":"Feature","geometry":{"type":"Point","coordinates":[6.6376408,51.4848905]},"properties":{"tract_id":"osm_26112313","population":15000,"density_per_sqkm":0,"lng":6.6376408,"lat":51.4848905,"name":"Eick Ost","place":"suburb"}},{"type":"Feature","geometry":{"type":"Point","coordinates":[6.6193924,51.226675]},"properties":{"tract_id":"osm_26891335","population":42001,"density_per_sqkm":0,"lng":6.6193924,"lat":51.226675,"name":"Kaarst","place":"town"}},{"type":"Feature","geometry":{"type":"Point","coordinates":[6.6064844,51.4535987]},"properties":{"tract_id":"osm_26902381","population":15000,"density_per_sqkm":0,"lng":6.6064844,"lat":51.4535987,"name":"Hülsdonk","place":"suburb"}},{"type":"Feature","geometry":{"type":"Point","coordinates":[6.600662,51.4886787]},"properties":{"tract_id":"osm_26902443","population":15000,"density_per_sqkm":0,"lng":6.600662,"lat":51.4886787,"name":"Repelen","place":"suburb"}},{"type":"Feature","geometry":{"type":"Point","coordinates":[6.6100044,51.4800284]},"properties":{"tract_id":"osm_26902444","population":15000,"density_per_sqkm":0,"lng":6.6100044,"lat":51.4800284,"name":"Meerfeld","place":"suburb"}},{"type":"Feature","geometry":{"type":"Point","coordinates":[6.6190939,51.490798]},"properties":{"tract_id":"osm_26902445","population":15000,"density_per_sqkm":0,"lng":6.6190939,"lat":51.490798,"name":"Rheinkamp","place":"suburb"}},{"type":"Feature","geometry":{"type":"Point","coordinates":[6.3228189,51.5169736]},"properties":{"tract_id":"osm_31408111","population":33064,"density_per_sqkm":0,"lng":6.3228189,"lat":51.5169736,"name":"Geldern","place":"town"}},{"type":"Feature","geometry":{"type":"Point","coordinates":[6.2427064,51.4961493]},"properties":{"tract_id":"osm_35679130","population":4692,"density_per_sqkm":0,"lng":6.2427064,"lat":51.4961493,"name":"Walbeck","place":"village"}},{"type":"Feature","geometry":{"type":"Point","coordinates":[6.2473713,51.1736787]},"properties":{"tract_id":"osm_60281542","population":2000,"density_per_sqkm":0,"lng":6.2473713,"lat":51.1736787,"name":"Merbeck","place":"village"}},{"type":"Feature","geometry":{"type":"Point","coordinates":[6.3905476,51.2562118]},"properties":{"tract_id":"osm_60573962","population":74941,"density_per_sqkm":0,"lng":6.3905476,"lat":51.2562118,"name":"Viersen","place":"town"}},{"type":"Feature","geometry":{"type":"Point","coordinates":[6.3704793,51.2859851]},"properties":{"tract_id":"osm_60584122","population":25000,"density_per_sqkm":0,"lng":6.3704793,"lat":51.2859851,"name":"Süchteln","place":"town"}},{"type":"Feature","geometry":{"type":"Point","coordinates":[6.2456273,51.5802996]},"properties":{"tract_id":"osm_60953667","population":27635,"density_per_sqkm":0,"lng":6.2456273,"lat":51.5802996,"name":"Kevelaer","place":"town"}},{"type":"Feature","geometry":{"type":"Point","coordinates":[6.5467641,51.4413742]},"properties":{"tract_id":"osm_70921140","population":26846,"density_per_sqkm":0,"lng":6.5467641,"lat":51.4413742,"name":"Neukirchen-Vluyn","place":"town"}},{"type":"Feature","geometry":{"type":"Point","coordinates":[6.547923,51.5017981]},"properties":{"tract_id":"osm_70921147","population":36973,"density_per_sqkm":0,"lng":6.547923,"lat":51.5017981,"name":"Kamp-Lintfort","place":"town"}},{"type":"Feature","geometry":{"type":"Point","coordinates":[6.6155585,51.4221836]},"properties":{"tract_id":"osm_70939484","population":2000,"density_per_sqkm":0,"lng":6.6155585,"lat":51.4221836,"name":"Holderberg","place":"village"}},{"type":"Feature","geometry":{"type":"Point","coordinates":[6.5938178,51.4183564]},"properties":{"tract_id":"osm_70956381","population":2000,"density_per_sqkm":0,"lng":6.5938178,"lat":51.4183564,"name":"Kapellen","place":"village"}},{"type":"Feature","geometry":{"type":"Point","coordinates":[6.5797665,51.4504528]},"properties":{"tract_id":"osm_70965659","population":15000,"density_per_sqkm":0,"lng":6.5797665,"lat":51.4504528,"name":"Neukirchen","place":"suburb"}},{"type":"Feature","geometry":{"type":"Point","coordinates":[6.5345262,51.4656276]},"properties":{"tract_id":"osm_70965664","population":2000,"density_per_sqkm":0,"lng":6.5345262,"lat":51.4656276,"name":"Rayen","place":"village"}},{"type":"Feature","geometry":{"type":"Point","coordinates":[6.6362903,51.5321197]},"properties":{"tract_id":"osm_70985267","population":15000,"density_per_sqkm":0,"lng":6.6362903,"lat":51.5321197,"name":"Budberg","place":"suburb"}},{"type":"Feature","geometry":{"type":"Point","coordinates":[6.5837689,51.5704933]},"properties":{"tract_id":"osm_70996413","population":15000,"density_per_sqkm":0,"lng":6.5837689,"lat":51.5704933,"name":"Ossenberg","place":"suburb"}},{"type":"Feature","geometry":{"type":"Point","coordinates":[6.5128805,51.5767474]},"properties":{"tract_id":"osm_70996420","population":12778,"density_per_sqkm":0,"lng":6.5128805,"lat":51.5767474,"name":"Alpen","place":"village"}},{"type":"Feature","geometry":{"type":"Point","coordinates":[6.4458391,51.1675275]},"properties":{"tract_id":"osm_72609503","population":15000,"density_per_sqkm":0,"lng":6.4458391,"lat":51.1675275,"name":"Rheydt","place":"suburb"}},{"type":"Feature","geometry":{"type":"Point","coordinates":[6.4140725,51.1639367]},"properties":{"tract_id":"osm_72633730","population":15000,"density_per_sqkm":0,"lng":6.4140725,"lat":51.1639367,"name":"Pongs","place":"suburb"}},{"type":"Feature","geometry":{"type":"Point","coordinates":[6.4714957,51.2207194]},"properties":{"tract_id":"osm_73668989","population":15000,"density_per_sqkm":0,"lng":6.4714957,"lat":51.2207194,"name":"Neuwerk","place":"suburb"}},{"type":"Feature","geometry":{"type":"Point","coordinates":[6.2024861,51.1924987]},"properties":{"tract_id":"osm_75626854","population":2000,"density_per_sqkm":0,"lng":6.2024861,"lat":51.1924987,"name":"Oberkrüchten","place":"village"}},{"type":"Feature","geometry":{"type":"Point","coordinates":[6.2219524,51.2149757]},"properties":{"tract_id":"osm_75642343","population":2000,"density_per_sqkm":0,"lng":6.2219524,"lat":51.2149757,"name":"Brempt","place":"village"}},{"type":"Feature","geometry":{"type":"Point","coordinates":[6.2508258,51.2953832]},"properties":{"tract_id":"osm_76459478","population":8500,"density_per_sqkm":0,"lng":6.2508258,"lat":51.2953832,"name":"Breyell","place":"village"}},{"type":"Feature","geometry":{"type":"Point","coordinates":[6.5143539,51.1902651]},"properties":{"tract_id":"osm_87963818","population":33078,"density_per_sqkm":0,"lng":6.5143539,"lat":51.1902651,"name":"Korschenbroich","place":"town"}},{"type":"Feature","geometry":{"type":"Point","coordinates":[6.25347,51.3892532]},"properties":{"tract_id":"osm_89293871","population":2000,"density_per_sqkm":0,"lng":6.25347,"lat":51.3892532,"name":"Herongen","place":"village"}},{"type":"Feature","geometry":{"type":"Point","coordinates":[6.5766765,51.1650012]},"properties":{"tract_id":"osm_91174316","population":6103,"density_per_sqkm":0,"lng":6.5766765,"lat":51.1650012,"name":"Glehn","place":"village"}},{"type":"Feature","geometry":{"type":"Point","coordinates":[6.5422695,51.1647157]},"properties":{"tract_id":"osm_91174322","population":2000,"density_per_sqkm":0,"lng":6.5422695,"lat":51.1647157,"name":"Liedberg","place":"village"}},{"type":"Feature","geometry":{"type":"Point","coordinates":[6.6097199,51.1677409]},"properties":{"tract_id":"osm_91253663","population":2000,"density_per_sqkm":0,"lng":6.6097199,"lat":51.1677409,"name":"Lüttenglehn","place":"village"}},{"type":"Feature","geometry":{"type":"Point","coordinates":[6.5964799,51.1618116]},"properties":{"tract_id":"osm_91261753","population":500,"density_per_sqkm":0,"lng":6.5964799,"lat":51.1618116,"name":"Epsendorf","place":"village"}},{"type":"Feature","geometry":{"type":"Point","coordinates":[6.5563114,51.1987272]},"properties":{"tract_id":"osm_91334930","population":10344,"density_per_sqkm":0,"lng":6.5563114,"lat":51.1987272,"name":"Kleinenbroich","place":"suburb"}},{"type":"Feature","geometry":{"type":"Point","coordinates":[6.2729676,51.2130398]},"properties":{"tract_id":"osm_110491317","population":10000,"density_per_sqkm":0,"lng":6.2729676,"lat":51.2130398,"name":"Waldniel","place":"town"}},{"type":"Feature","geometry":{"type":"Point","coordinates":[6.4264087,51.1680735]},"properties":{"tract_id":"osm_143711160","population":15000,"density_per_sqkm":0,"lng":6.4264087,"lat":51.1680735,"name":"Schrievers","place":"suburb"}},{"type":"Feature","geometry":{"type":"Point","coordinates":[6.4181539,51.1656403]},"properties":{"tract_id":"osm_143712723","population":8000,"density_per_sqkm":0,"lng":6.4181539,"lat":51.1656403,"name":"Morr","place":"neighbourhood"}},{"type":"Feature","geometry":{"type":"Point","coordinates":[6.406904,51.1763983]},"properties":{"tract_id":"osm_143715259","population":8000,"density_per_sqkm":0,"lng":6.406904,"lat":51.1763983,"name":"Engelsholt","place":"neighbourhood"}},{"type":"Feature","geometry":{"type":"Point","coordinates":[6.4082489,51.1840972]},"properties":{"tract_id":"osm_143717190","population":15000,"density_per_sqkm":0,"lng":6.4082489,"lat":51.1840972,"name":"Holt","place":"suburb"}},{"type":"Feature","geometry":{"type":"Point","coordinates":[6.3978092,51.1855064]},"properties":{"tract_id":"osm_143719397","population":8000,"density_per_sqkm":0,"lng":6.3978092,"lat":51.1855064,"name":"Hehnerholt","place":"neighbourhood"}},{"type":"Feature","geometry":{"type":"Point","coordinates":[6.3991457,51.1938596]},"properties":{"tract_id":"osm_143721333","population":8000,"density_per_sqkm":0,"lng":6.3991457,"lat":51.1938596,"name":"Rönneter","place":"neighbourhood"}},{"type":"Feature","geometry":{"type":"Point","coordinates":[6.4116116,51.1959509]},"properties":{"tract_id":"osm_143722252","population":15000,"density_per_sqkm":0,"lng":6.4116116,"lat":51.1959509,"name":"Waldhausen","place":"suburb"}},{"type":"Feature","geometry":{"type":"Point","coordinates":[6.4201787,51.1846046]},"properties":{"tract_id":"osm_143723783","population":8000,"density_per_sqkm":0,"lng":6.4201787,"lat":51.1846046,"name":"Speick","place":"neighbourhood"}},{"type":"Feature","geometry":{"type":"Point","coordinates":[6.4249031,51.1772202]},"properties":{"tract_id":"osm_143725276","population":8000,"density_per_sqkm":0,"lng":6.4249031,"lat":51.1772202,"name":"Ohler","place":"neighbourhood"}},{"type":"Feature","geometry":{"type":"Point","coordinates":[6.4341329,51.1829035]},"properties":{"tract_id":"osm_143727130","population":15000,"density_per_sqkm":0,"lng":6.4341329,"lat":51.1829035,"name":"Dahl","place":"suburb"}},{"type":"Feature","geometry":{"type":"Point","coordinates":[6.4429117,51.182755]},"properties":{"tract_id":"osm_143729233","population":8000,"density_per_sqkm":0,"lng":6.4429117,"lat":51.182755,"name":"Hermges","place":"neighbourhood"}},{"type":"Feature","geometry":{"type":"Point","coordinates":[6.4637181,51.1803041]},"properties":{"tract_id":"osm_143730832","population":8000,"density_per_sqkm":0,"lng":6.4637181,"lat":51.1803041,"name":"Bonnenbroich","place":"neighbourhood"}},{"type":"Feature","geometry":{"type":"Point","coordinates":[6.4602663,51.1689804]},"properties":{"tract_id":"osm_143735923","population":8000,"density_per_sqkm":0,"lng":6.4602663,"lat":51.1689804,"name":"Hoster","place":"neighbourhood"}},{"type":"Feature","geometry":{"type":"Point","coordinates":[6.4714639,51.1745792]},"properties":{"tract_id":"osm_143736839","population":8000,"density_per_sqkm":0,"lng":6.4714639,"lat":51.1745792,"name":"Geneicken","place":"neighbourhood"}},{"type":"Feature","geometry":{"type":"Point","coordinates":[6.4623931,51.1863433]},"properties":{"tract_id":"osm_143759123","population":8000,"density_per_sqkm":0,"lng":6.4623931,"lat":51.1863433,"name":"Hardterbroich","place":"neighbourhood"}},{"type":"Feature","geometry":{"type":"Point","coordinates":[6.4560216,51.1914973]},"properties":{"tract_id":"osm_143761357","population":15000,"density_per_sqkm":0,"lng":6.4560216,"lat":51.1914973,"name":"Hardterbroich-Pesch","place":"suburb"}},{"type":"Feature","geometry":{"type":"Point","coordinates":[6.4770713,51.2027251]},"properties":{"tract_id":"osm_143763276","population":8000,"density_per_sqkm":0,"lng":6.4770713,"lat":51.2027251,"name":"Lürrip","place":"neighbourhood"}},{"type":"Feature","geometry":{"type":"Point","coordinates":[6.4774098,51.2145513]},"properties":{"tract_id":"osm_143764734","population":8000,"density_per_sqkm":0,"lng":6.4774098,"lat":51.2145513,"name":"Uedding","place":"neighbourhood"}},{"type":"Feature","geometry":{"type":"Point","coordinates":[6.4459048,51.2049323]},"properties":{"tract_id":"osm_143769089","population":15000,"density_per_sqkm":0,"lng":6.4459048,"lat":51.2049323,"name":"Eicken","place":"suburb"}},{"type":"Feature","geometry":{"type":"Point","coordinates":[6.4662734,51.2229275]},"properties":{"tract_id":"osm_143769094","population":8000,"density_per_sqkm":0,"lng":6.4662734,"lat":51.2229275,"name":"Dünn","place":"neighbourhood"}},{"type":"Feature","geometry":{"type":"Point","coordinates":[6.4656112,51.2181085]},"properties":{"tract_id":"osm_143770355","population":8000,"density_per_sqkm":0,"lng":6.4656112,"lat":51.2181085,"name":"Engelbleck","place":"neighbourhood"}},{"type":"Feature","geometry":{"type":"Point","coordinates":[6.4522816,51.2187855]},"properties":{"tract_id":"osm_143770361","population":8000,"density_per_sqkm":0,"lng":6.4522816,"lat":51.2187855,"name":"Hoven","place":"neighbourhood"}},{"type":"Feature","geometry":{"type":"Point","coordinates":[6.4473203,51.2255721]},"properties":{"tract_id":"osm_143771149","population":8000,"density_per_sqkm":0,"lng":6.4473203,"lat":51.2255721,"name":"Bettrath","place":"neighbourhood"}},{"type":"Feature","geometry":{"type":"Point","coordinates":[6.4604251,51.2252458]},"properties":{"tract_id":"osm_143771612","population":8000,"density_per_sqkm":0,"lng":6.4604251,"lat":51.2252458,"name":"Fuchshütte","place":"neighbourhood"}},{"type":"Feature","geometry":{"type":"Point","coordinates":[6.4760478,51.2235841]},"properties":{"tract_id":"osm_143772217","population":8000,"density_per_sqkm":0,"lng":6.4760478,"lat":51.2235841,"name":"Damm","place":"neighbourhood"}},{"type":"Feature","geometry":{"type":"Point","coordinates":[6.418503,51.207131]},"properties":{"tract_id":"osm_143776529","population":15000,"density_per_sqkm":0,"lng":6.418503,"lat":51.207131,"name":"Windberg","place":"suburb"}},{"type":"Feature","geometry":{"type":"Point","coordinates":[6.4097347,51.2106548]},"properties":{"tract_id":"osm_143779725","population":8000,"density_per_sqkm":0,"lng":6.4097347,"lat":51.2106548,"name":"Großheide","place":"neighbourhood"}},{"type":"Feature","geometry":{"type":"Point","coordinates":[6.4009342,51.2011451]},"properties":{"tract_id":"osm_143781355","population":15000,"density_per_sqkm":0,"lng":6.4009342,"lat":51.2011451,"name":"Hamern","place":"suburb"}},{"type":"Feature","geometry":{"type":"Point","coordinates":[6.3875679,51.203503]},"properties":{"tract_id":"osm_143784185","population":15000,"density_per_sqkm":0,"lng":6.3875679,"lat":51.203503,"name":"Venn","place":"suburb"}},{"type":"Feature","geometry":{"type":"Point","coordinates":[6.3836483,51.1968781]},"properties":{"tract_id":"osm_143784194","population":8000,"density_per_sqkm":0,"lng":6.3836483,"lat":51.1968781,"name":"Beltinghoven","place":"neighbourhood"}},{"type":"Feature","geometry":{"type":"Point","coordinates":[6.3951774,51.1970781]},"properties":{"tract_id":"osm_143784196","population":8000,"density_per_sqkm":0,"lng":6.3951774,"lat":51.1970781,"name":"Poeth","place":"neighbourhood"}},{"type":"Feature","geometry":{"type":"Point","coordinates":[6.3719079,51.1853316]},"properties":{"tract_id":"osm_143791802","population":15000,"density_per_sqkm":0,"lng":6.3719079,"lat":51.1853316,"name":"Hehn","place":"suburb"}},{"type":"Feature","geometry":{"type":"Point","coordinates":[6.3636613,51.5714227]},"properties":{"tract_id":"osm_190453423","population":2510,"density_per_sqkm":0,"lng":6.3636613,"lat":51.5714227,"name":"Kapellen an der Fleuth","place":"village"}},{"type":"Feature","geometry":{"type":"Point","coordinates":[6.4165992,51.4391499]},"properties":{"tract_id":"osm_192548935","population":2000,"density_per_sqkm":0,"lng":6.4165992,"lat":51.4391499,"name":"Aldekerk","place":"village"}},{"type":"Feature","geometry":{"type":"Point","coordinates":[6.6093316,51.4318367]},"properties":{"tract_id":"osm_212586514","population":2000,"density_per_sqkm":0,"lng":6.6093316,"lat":51.4318367,"name":"Bettenkamp","place":"village"}},{"type":"Feature","geometry":{"type":"Point","coordinates":[6.6343342,51.4955836]},"properties":{"tract_id":"osm_212595070","population":15000,"density_per_sqkm":0,"lng":6.6343342,"lat":51.4955836,"name":"Bornheim","place":"suburb"}},{"type":"Feature","geometry":{"type":"Point","coordinates":[6.6004742,51.4759902]},"properties":{"tract_id":"osm_212601290","population":15000,"density_per_sqkm":0,"lng":6.6004742,"lat":51.4759902,"name":"Genend","place":"suburb"}},{"type":"Feature","geometry":{"type":"Point","coordinates":[6.4245085,51.5347321]},"properties":{"tract_id":"osm_221577194","population":7000,"density_per_sqkm":0,"lng":6.4245085,"lat":51.5347321,"name":"Issum","place":"village"}},{"type":"Feature","geometry":{"type":"Point","coordinates":[6.5623343,51.3331205]},"properties":{"tract_id":"osm_240048753","population":222058,"density_per_sqkm":0,"lng":6.5623343,"lat":51.3331205,"name":"Krefeld","place":"city"}},{"type":"Feature","geometry":{"type":"Point","coordinates":[6.343738,51.336077]},"properties":{"tract_id":"osm_240050617","population":14760,"density_per_sqkm":0,"lng":6.343738,"lat":51.336077,"name":"Grefrath","place":"town"}},{"type":"Feature","geometry":{"type":"Point","coordinates":[6.4353792,51.1947131]},"properties":{"tract_id":"osm_240062631","population":255430,"density_per_sqkm":0,"lng":6.4353792,"lat":51.1947131,"name":"Mönchengladbach","place":"city"}},{"type":"Feature","geometry":{"type":"Point","coordinates":[6.2694388,51.4439341]},"properties":{"tract_id":"osm_240097044","population":15401,"density_per_sqkm":0,"lng":6.2694388,"lat":51.4439341,"name":"Straelen","place":"town"}},{"type":"Feature","geometry":{"type":"Point","coordinates":[6.4690655,51.4677722]},"properties":{"tract_id":"osm_240106391","population":6526,"density_per_sqkm":0,"lng":6.4690655,"lat":51.4677722,"name":"Rheurdt","place":"town"}},{"type":"Feature","geometry":{"type":"Point","coordinates":[6.3902117,51.5699229]},"properties":{"tract_id":"osm_240771271","population":2000,"density_per_sqkm":0,"lng":6.3902117,"lat":51.5699229,"name":"Hamb","place":"village"}},{"type":"Feature","geometry":{"type":"Point","coordinates":[6.5526422,51.5587186]},"properties":{"tract_id":"osm_245890976","population":2000,"density_per_sqkm":0,"lng":6.5526422,"lat":51.5587186,"name":"Millingen","place":"village"}},{"type":"Feature","geometry":{"type":"Point","coordinates":[6.2165922,51.5535199]},"properties":{"tract_id":"osm_247004909","population":2485,"density_per_sqkm":0,"lng":6.2165922,"lat":51.5535199,"name":"Twisteden","place":"village"}},{"type":"Feature","geometry":{"type":"Point","coordinates":[6.2431756,51.5360576]},"properties":{"tract_id":"osm_247004911","population":898,"density_per_sqkm":0,"lng":6.2431756,"lat":51.5360576,"name":"Lüllingen","place":"village"}},{"type":"Feature","geometry":{"type":"Point","coordinates":[6.2643733,51.4091239]},"properties":{"tract_id":"osm_247045182","population":2000,"density_per_sqkm":0,"lng":6.2643733,"lat":51.4091239,"name":"Broekhuysen","place":"village"}},{"type":"Feature","geometry":{"type":"Point","coordinates":[6.4698827,51.5110774]},"properties":{"tract_id":"osm_248787981","population":2000,"density_per_sqkm":0,"lng":6.4698827,"lat":51.5110774,"name":"Hoerstgen","place":"village"}},{"type":"Feature","geometry":{"type":"Point","coordinates":[6.5029724,51.5069939]},"properties":{"tract_id":"osm_248787982","population":2000,"density_per_sqkm":0,"lng":6.5029724,"lat":51.5069939,"name":"Kamperbrück","place":"village"}},{"type":"Feature","geometry":{"type":"Point","coordinates":[6.5157985,51.503607]},"properties":{"tract_id":"osm_254092789","population":15000,"density_per_sqkm":0,"lng":6.5157985,"lat":51.503607,"name":"Kamp","place":"suburb"}},{"type":"Feature","geometry":{"type":"Point","coordinates":[6.6044643,51.5295407]},"properties":{"tract_id":"osm_255260592","population":15000,"density_per_sqkm":0,"lng":6.6044643,"lat":51.5295407,"name":"Winterswick","place":"suburb"}},{"type":"Feature","geometry":{"type":"Point","coordinates":[6.483332,51.4424089]},"properties":{"tract_id":"osm_257825331","population":2000,"density_per_sqkm":0,"lng":6.483332,"lat":51.4424089,"name":"Schaephuysen","place":"village"}},{"type":"Feature","geometry":{"type":"Point","coordinates":[6.2964384,51.5278396]},"properties":{"tract_id":"osm_259008935","population":5637,"density_per_sqkm":0,"lng":6.2964384,"lat":51.5278396,"name":"Veert","place":"village"}},{"type":"Feature","geometry":{"type":"Point","coordinates":[6.2961511,51.4916087]},"properties":{"tract_id":"osm_259009039","population":2300,"density_per_sqkm":0,"lng":6.2961511,"lat":51.4916087,"name":"Pont","place":"village"}},{"type":"Feature","geometry":{"type":"Point","coordinates":[6.2929408,51.5700946]},"properties":{"tract_id":"osm_259500781","population":2537,"density_per_sqkm":0,"lng":6.2929408,"lat":51.5700946,"name":"Wetten","place":"village"}},{"type":"Feature","geometry":{"type":"Point","coordinates":[6.5683088,51.3582019]},"properties":{"tract_id":"osm_261660693","population":15000,"density_per_sqkm":0,"lng":6.5683088,"lat":51.3582019,"name":"Kliedbruch","place":"suburb"}},{"type":"Feature","geometry":{"type":"Point","coordinates":[6.5851435,51.3632469]},"properties":{"tract_id":"osm_261660694","population":15000,"density_per_sqkm":0,"lng":6.5851435,"lat":51.3632469,"name":"Verberg","place":"suburb"}},{"type":"Feature","geometry":{"type":"Point","coordinates":[6.5870484,51.3499283]},"properties":{"tract_id":"osm_261680417","population":5000,"density_per_sqkm":0,"lng":6.5870484,"lat":51.3499283,"name":"Stadtwald","place":"quarter"}},{"type":"Feature","geometry":{"type":"Point","coordinates":[6.5294536,51.1853138]},"properties":{"tract_id":"osm_267609664","population":2380,"density_per_sqkm":0,"lng":6.5294536,"lat":51.1853138,"name":"Pesch","place":"village"}},{"type":"Feature","geometry":{"type":"Point","coordinates":[6.4275032,51.2018998]},"properties":{"tract_id":"osm_269847156","population":8000,"density_per_sqkm":0,"lng":6.4275032,"lat":51.2018998,"name":"Am Wasserturm","place":"neighbourhood"}},{"type":"Feature","geometry":{"type":"Point","coordinates":[6.4358551,51.195497]},"properties":{"tract_id":"osm_269848574","population":8000,"density_per_sqkm":0,"lng":6.4358551,"lat":51.195497,"name":"Gladbach","place":"neighbourhood"}},{"type":"Feature","geometry":{"type":"Point","coordinates":[6.4212904,51.1920154]},"properties":{"tract_id":"osm_269848621","population":15000,"density_per_sqkm":0,"lng":6.4212904,"lat":51.1920154,"name":"Westend","place":"suburb"}},{"type":"Feature","geometry":{"type":"Point","coordinates":[6.4909318,51.1653109]},"properties":{"tract_id":"osm_269870046","population":8000,"density_per_sqkm":0,"lng":6.4909318,"lat":51.1653109,"name":"Ruckes","place":"neighbourhood"}},{"type":"Feature","geometry":{"type":"Point","coordinates":[6.4931671,51.1689364]},"properties":{"tract_id":"osm_269870250","population":8000,"density_per_sqkm":0,"lng":6.4931671,"lat":51.1689364,"name":"Eiger","place":"neighbourhood"}},{"type":"Feature","geometry":{"type":"Point","coordinates":[6.4819035,51.1643472]},"properties":{"tract_id":"osm_269870415","population":8000,"density_per_sqkm":0,"lng":6.4819035,"lat":51.1643472,"name":"Biesel","place":"neighbourhood"}},{"type":"Feature","geometry":{"type":"Point","coordinates":[6.480753,51.1681094]},"properties":{"tract_id":"osm_269870470","population":8000,"density_per_sqkm":0,"lng":6.480753,"lat":51.1681094,"name":"Schrödt","place":"neighbourhood"}},{"type":"Feature","geometry":{"type":"Point","coordinates":[6.4819452,51.1721243]},"properties":{"tract_id":"osm_269870714","population":8000,"density_per_sqkm":0,"lng":6.4819452,"lat":51.1721243,"name":"Tackhütte","place":"neighbourhood"}},{"type":"Feature","geometry":{"type":"Point","coordinates":[6.3759483,51.4964684]},"properties":{"tract_id":"osm_270259485","population":1788,"density_per_sqkm":0,"lng":6.3759483,"lat":51.4964684,"name":"Hartefeld","place":"village"}},{"type":"Feature","geometry":{"type":"Point","coordinates":[6.3548142,51.4960842]},"properties":{"tract_id":"osm_270259486","population":1007,"density_per_sqkm":0,"lng":6.3548142,"lat":51.4960842,"name":"Vernum","place":"village"}},{"type":"Feature","geometry":{"type":"Point","coordinates":[6.373475,51.457018]},"properties":{"tract_id":"osm_277276632","population":2000,"density_per_sqkm":0,"lng":6.373475,"lat":51.457018,"name":"Nieukerk","place":"village"}},{"type":"Feature","geometry":{"type":"Point","coordinates":[6.364212,51.3422608]},"properties":{"tract_id":"osm_280288027","population":2000,"density_per_sqkm":0,"lng":6.364212,"lat":51.3422608,"name":"Mülhausen","place":"village"}},{"type":"Feature","geometry":{"type":"Point","coordinates":[6.3603333,51.2968026]},"properties":{"tract_id":"osm_280688074","population":15000,"density_per_sqkm":0,"lng":6.3603333,"lat":51.2968026,"name":"Vorst","place":"suburb"}},{"type":"Feature","geometry":{"type":"Point","coordinates":[6.4120426,51.2454461]},"properties":{"tract_id":"osm_287576060","population":2000,"density_per_sqkm":0,"lng":6.4120426,"lat":51.2454461,"name":"Hamm","place":"village"}},{"type":"Feature","geometry":{"type":"Point","coordinates":[6.5965238,51.3777953]},"properties":{"tract_id":"osm_289764305","population":15000,"density_per_sqkm":0,"lng":6.5965238,"lat":51.3777953,"name":"Traar","place":"suburb"}},{"type":"Feature","geometry":{"type":"Point","coordinates":[6.6383417,51.3347412]},"properties":{"tract_id":"osm_290599220","population":15000,"density_per_sqkm":0,"lng":6.6383417,"lat":51.3347412,"name":"Linn","place":"suburb"}},{"type":"Feature","geometry":{"type":"Point","coordinates":[6.3017075,51.2847971]},"properties":{"tract_id":"osm_303518188","population":300,"density_per_sqkm":0,"lng":6.3017075,"lat":51.2847971,"name":"Dyck","place":"village"}},{"type":"Feature","geometry":{"type":"Point","coordinates":[6.3800418,51.2390894]},"properties":{"tract_id":"osm_309098011","population":15000,"density_per_sqkm":0,"lng":6.3800418,"lat":51.2390894,"name":"Bockert","place":"suburb"}},{"type":"Feature","geometry":{"type":"Point","coordinates":[6.5651642,51.2095684]},"properties":{"tract_id":"osm_309317279","population":8000,"density_per_sqkm":0,"lng":6.5651642,"lat":51.2095684,"name":"Düppheide","place":"neighbourhood"}},{"type":"Feature","geometry":{"type":"Point","coordinates":[6.3921686,51.2907978]},"properties":{"tract_id":"osm_315347650","population":2000,"density_per_sqkm":0,"lng":6.3921686,"lat":51.2907978,"name":"Hagen","place":"village"}},{"type":"Feature","geometry":{"type":"Point","coordinates":[6.6186416,51.2145511]},"properties":{"tract_id":"osm_315378398","population":15000,"density_per_sqkm":0,"lng":6.6186416,"lat":51.2145511,"name":"Holzbüttgen","place":"suburb"}},{"type":"Feature","geometry":{"type":"Point","coordinates":[6.4388355,51.2305335]},"properties":{"tract_id":"osm_315591827","population":8000,"density_per_sqkm":0,"lng":6.4388355,"lat":51.2305335,"name":"Lockhütte","place":"neighbourhood"}},{"type":"Feature","geometry":{"type":"Point","coordinates":[6.5629025,51.3094259]},"properties":{"tract_id":"osm_318748518","population":5000,"density_per_sqkm":0,"lng":6.5629025,"lat":51.3094259,"name":"Stahldorf","place":"quarter"}},{"type":"Feature","geometry":{"type":"Point","coordinates":[6.5873544,51.3045616]},"properties":{"tract_id":"osm_318757264","population":15000,"density_per_sqkm":0,"lng":6.5873544,"lat":51.3045616,"name":"Fischeln","place":"suburb"}},{"type":"Feature","geometry":{"type":"Point","coordinates":[6.5058159,51.3073641]},"properties":{"tract_id":"osm_319675130","population":2000,"density_per_sqkm":0,"lng":6.5058159,"lat":51.3073641,"name":"Feldburg","place":"village"}},{"type":"Feature","geometry":{"type":"Point","coordinates":[6.3954298,51.2386741]},"properties":{"tract_id":"osm_320929597","population":15000,"density_per_sqkm":0,"lng":6.3954298,"lat":51.2386741,"name":"Beberich","place":"suburb"}},{"type":"Feature","geometry":{"type":"Point","coordinates":[6.3806045,51.2454822]},"properties":{"tract_id":"osm_320929600","population":15000,"density_per_sqkm":0,"lng":6.3806045,"lat":51.2454822,"name":"Hoser","place":"suburb"}},{"type":"Feature","geometry":{"type":"Point","coordinates":[6.2430049,51.2794723]},"properties":{"tract_id":"osm_323211213","population":4000,"density_per_sqkm":0,"lng":6.2430049,"lat":51.2794723,"name":"Schaag","place":"village"}},{"type":"Feature","geometry":{"type":"Point","coordinates":[6.5029807,51.4134182]},"properties":{"tract_id":"osm_324465043","population":3300,"density_per_sqkm":0,"lng":6.5029807,"lat":51.4134182,"name":"Tönisberg","place":"village"}},{"type":"Feature","geometry":{"type":"Point","coordinates":[6.5089874,51.3733939]},"properties":{"tract_id":"osm_324827305","population":15000,"density_per_sqkm":0,"lng":6.5089874,"lat":51.3733939,"name":"Hüls","place":"suburb"}},{"type":"Feature","geometry":{"type":"Point","coordinates":[6.5285285,51.206562]},"properties":{"tract_id":"osm_325620445","population":2000,"density_per_sqkm":0,"lng":6.5285285,"lat":51.206562,"name":"Raderbroich","place":"village"}},{"type":"Feature","geometry":{"type":"Point","coordinates":[6.6247822,51.5757486]},"properties":{"tract_id":"osm_335353667","population":15000,"density_per_sqkm":0,"lng":6.6247822,"lat":51.5757486,"name":"Mehrum","place":"suburb"}},{"type":"Feature","geometry":{"type":"Point","coordinates":[6.5341595,51.1664465]},"properties":{"tract_id":"osm_336419965","population":2000,"density_per_sqkm":0,"lng":6.5341595,"lat":51.1664465,"name":"Steinhausen","place":"village"}},{"type":"Feature","geometry":{"type":"Point","coordinates":[6.4603812,51.4419305]},"properties":{"tract_id":"osm_344791212","population":2000,"density_per_sqkm":0,"lng":6.4603812,"lat":51.4419305,"name":"Saelhuysen","place":"village"}},{"type":"Feature","geometry":{"type":"Point","coordinates":[6.3797495,51.3251047]},"properties":{"tract_id":"osm_345334492","population":2000,"density_per_sqkm":0,"lng":6.3797495,"lat":51.3251047,"name":"Oedt","place":"village"}},{"type":"Feature","geometry":{"type":"Point","coordinates":[6.2263821,51.3366026]},"properties":{"tract_id":"osm_364632999","population":2000,"density_per_sqkm":0,"lng":6.2263821,"lat":51.3366026,"name":"Leuth","place":"village"}},{"type":"Feature","geometry":{"type":"Point","coordinates":[6.2155075,51.2443235]},"properties":{"tract_id":"osm_364695546","population":2000,"density_per_sqkm":0,"lng":6.2155075,"lat":51.2443235,"name":"Born","place":"village"}},{"type":"Feature","geometry":{"type":"Point","coordinates":[6.4925537,51.3210609]},"properties":{"tract_id":"osm_390993829","population":22000,"density_per_sqkm":0,"lng":6.4925537,"lat":51.3210609,"name":"St. Tönis","place":"town"}},{"type":"Feature","geometry":{"type":"Point","coordinates":[6.5253212,51.5270223]},"properties":{"tract_id":"osm_403650464","population":15000,"density_per_sqkm":0,"lng":6.5253212,"lat":51.5270223,"name":"Saalhoff","place":"suburb"}},{"type":"Feature","geometry":{"type":"Point","coordinates":[6.5443667,51.5373518]},"properties":{"tract_id":"osm_404738799","population":2000,"density_per_sqkm":0,"lng":6.5443667,"lat":51.5373518,"name":"Alpsray","place":"village"}},{"type":"Feature","geometry":{"type":"Point","coordinates":[6.5334741,51.5125853]},"properties":{"tract_id":"osm_404741982","population":15000,"density_per_sqkm":0,"lng":6.5334741,"lat":51.5125853,"name":"Niersenbruch","place":"suburb"}},{"type":"Feature","geometry":{"type":"Point","coordinates":[6.5328382,51.257911]},"properties":{"tract_id":"osm_430063136","population":2000,"density_per_sqkm":0,"lng":6.5328382,"lat":51.257911,"name":"Wekeln","place":"village"}},{"type":"Feature","geometry":{"type":"Point","coordinates":[6.3339287,51.3531408]},"properties":{"tract_id":"osm_435123420","population":2000,"density_per_sqkm":0,"lng":6.3339287,"lat":51.3531408,"name":"Vinkrath","place":"village"}},{"type":"Feature","geometry":{"type":"Point","coordinates":[6.4283443,51.3046625]},"properties":{"tract_id":"osm_470411223","population":6000,"density_per_sqkm":0,"lng":6.4283443,"lat":51.3046625,"name":"Vorst","place":"village"}},{"type":"Feature","geometry":{"type":"Point","coordinates":[6.6127778,51.3291666]},"properties":{"tract_id":"osm_544046605","population":15000,"density_per_sqkm":0,"lng":6.6127778,"lat":51.3291666,"name":"Oppum","place":"suburb"}},{"type":"Feature","geometry":{"type":"Point","coordinates":[6.4224776,51.1604107]},"properties":{"tract_id":"osm_563631990","population":15000,"density_per_sqkm":0,"lng":6.4224776,"lat":51.1604107,"name":"Rheydt-West","place":"suburb"}},{"type":"Feature","geometry":{"type":"Point","coordinates":[6.3931277,51.43951]},"properties":{"tract_id":"osm_577741188","population":2000,"density_per_sqkm":0,"lng":6.3931277,"lat":51.43951,"name":"Eyll","place":"village"}},{"type":"Feature","geometry":{"type":"Point","coordinates":[6.5570236,51.4052215]},"properties":{"tract_id":"osm_581242026","population":650,"density_per_sqkm":0,"lng":6.5570236,"lat":51.4052215,"name":"Niep","place":"village"}},{"type":"Feature","geometry":{"type":"Point","coordinates":[6.61667,51.35]},"properties":{"tract_id":"osm_596134959","population":15000,"density_per_sqkm":0,"lng":6.61667,"lat":51.35,"name":"Bockum","place":"suburb"}},{"type":"Feature","geometry":{"type":"Point","coordinates":[6.6274174,51.3974144]},"properties":{"tract_id":"osm_596726501","population":15000,"density_per_sqkm":0,"lng":6.6274174,"lat":51.3974144,"name":"Vennikel","place":"suburb"}},{"type":"Feature","geometry":{"type":"Point","coordinates":[6.5446958,51.2641433]},"properties":{"tract_id":"osm_601805037","population":51846,"density_per_sqkm":0,"lng":6.5446958,"lat":51.2641433,"name":"Willich","place":"town"}},{"type":"Feature","geometry":{"type":"Point","coordinates":[6.4587875,51.2731989]},"properties":{"tract_id":"osm_601836392","population":8000,"density_per_sqkm":0,"lng":6.4587875,"lat":51.2731989,"name":"Eschert","place":"neighbourhood"}},{"type":"Feature","geometry":{"type":"Point","coordinates":[6.4524179,51.382662]},"properties":{"tract_id":"osm_634407670","population":8900,"density_per_sqkm":0,"lng":6.4524179,"lat":51.382662,"name":"St. Hubert","place":"village"}},{"type":"Feature","geometry":{"type":"Point","coordinates":[6.243434,51.4635298]},"properties":{"tract_id":"osm_645137392","population":2000,"density_per_sqkm":0,"lng":6.243434,"lat":51.4635298,"name":"Auwel","place":"village"}},{"type":"Feature","geometry":{"type":"Point","coordinates":[6.2196622,51.2000398]},"properties":{"tract_id":"osm_676312570","population":25000,"density_per_sqkm":0,"lng":6.2196622,"lat":51.2000398,"name":"Niederkrüchten","place":"town"}},{"type":"Feature","geometry":{"type":"Point","coordinates":[6.2251879,51.1831314]},"properties":{"tract_id":"osm_738211089","population":2000,"density_per_sqkm":0,"lng":6.2251879,"lat":51.1831314,"name":"Varbrook","place":"village"}},{"type":"Feature","geometry":{"type":"Point","coordinates":[6.4356965,51.4223757]},"properties":{"tract_id":"osm_957984431","population":2000,"density_per_sqkm":0,"lng":6.4356965,"lat":51.4223757,"name":"Stenden","place":"village"}},{"type":"Feature","geometry":{"type":"Point","coordinates":[6.5561798,51.5925858]},"properties":{"tract_id":"osm_1020236094","population":7348,"density_per_sqkm":0,"lng":6.5561798,"lat":51.5925858,"name":"Borth","place":"suburb"}},{"type":"Feature","geometry":{"type":"Point","coordinates":[6.5711307,51.5956853]},"properties":{"tract_id":"osm_1020236534","population":15000,"density_per_sqkm":0,"lng":6.5711307,"lat":51.5956853,"name":"Wallach","place":"suburb"}},{"type":"Feature","geometry":{"type":"Point","coordinates":[6.4291282,51.4937469]},"properties":{"tract_id":"osm_1026999033","population":2000,"density_per_sqkm":0,"lng":6.4291282,"lat":51.4937469,"name":"Sevelen","place":"village"}},{"type":"Feature","geometry":{"type":"Point","coordinates":[6.5844611,51.3154427]},"properties":{"tract_id":"osm_1121445644","population":5000,"density_per_sqkm":0,"lng":6.5844611,"lat":51.3154427,"name":"Königshof","place":"quarter"}},{"type":"Feature","geometry":{"type":"Point","coordinates":[6.5067153,51.2995806]},"properties":{"tract_id":"osm_1137587474","population":15000,"density_per_sqkm":0,"lng":6.5067153,"lat":51.2995806,"name":"Forstwald","place":"suburb"}},{"type":"Feature","geometry":{"type":"Point","coordinates":[6.5291193,51.3223534]},"properties":{"tract_id":"osm_1137587516","population":15000,"density_per_sqkm":0,"lng":6.5291193,"lat":51.3223534,"name":"Gatherhof","place":"suburb"}},{"type":"Feature","geometry":{"type":"Point","coordinates":[6.5371636,51.318445]},"properties":{"tract_id":"osm_1137587519","population":15000,"density_per_sqkm":0,"lng":6.5371636,"lat":51.318445,"name":"Lindental","place":"suburb"}},{"type":"Feature","geometry":{"type":"Point","coordinates":[6.5261152,51.3291979]},"properties":{"tract_id":"osm_1137587521","population":15000,"density_per_sqkm":0,"lng":6.5261152,"lat":51.3291979,"name":"Schicksbaum","place":"suburb"}},{"type":"Feature","geometry":{"type":"Point","coordinates":[6.5392472,51.3941223]},"properties":{"tract_id":"osm_1137587608","population":15000,"density_per_sqkm":0,"lng":6.5392472,"lat":51.3941223,"name":"Hülser Berg","place":"suburb"}},{"type":"Feature","geometry":{"type":"Point","coordinates":[6.538894,51.3532885]},"properties":{"tract_id":"osm_1139956815","population":15000,"density_per_sqkm":0,"lng":6.538894,"lat":51.3532885,"name":"Inrath","place":"suburb"}},{"type":"Feature","geometry":{"type":"Point","coordinates":[6.5374017,51.3104694]},"properties":{"tract_id":"osm_1170261898","population":15000,"density_per_sqkm":0,"lng":6.5374017,"lat":51.3104694,"name":"Tackheide","place":"suburb"}},{"type":"Feature","geometry":{"type":"Point","coordinates":[6.6148446,51.3695781]},"properties":{"tract_id":"osm_1172659892","population":15000,"density_per_sqkm":0,"lng":6.6148446,"lat":51.3695781,"name":"Elfrath","place":"suburb"}},{"type":"Feature","geometry":{"type":"Point","coordinates":[6.6214925,51.3646594]},"properties":{"tract_id":"osm_1194301743","population":15000,"density_per_sqkm":0,"lng":6.6214925,"lat":51.3646594,"name":"Gartenstadt","place":"suburb"}},{"type":"Feature","geometry":{"type":"Point","coordinates":[6.577482,51.3396761]},"properties":{"tract_id":"osm_1204104890","population":22227,"density_per_sqkm":0,"lng":6.577482,"lat":51.3396761,"name":"Cracau","place":"suburb"}},{"type":"Feature","geometry":{"type":"Point","coordinates":[6.5934553,51.3168834]},"properties":{"tract_id":"osm_1298842822","population":5000,"density_per_sqkm":0,"lng":6.5934553,"lat":51.3168834,"name":"Niederbruch","place":"quarter"}},{"type":"Feature","geometry":{"type":"Point","coordinates":[6.5868218,51.2211121]},"properties":{"tract_id":"osm_1427344130","population":15000,"density_per_sqkm":0,"lng":6.5868218,"lat":51.2211121,"name":"Linning","place":"suburb"}},{"type":"Feature","geometry":{"type":"Point","coordinates":[6.5842211,51.3227518]},"properties":{"tract_id":"osm_1485045218","population":15000,"density_per_sqkm":0,"lng":6.5842211,"lat":51.3227518,"name":"Dießem","place":"suburb"}},{"type":"Feature","geometry":{"type":"Point","coordinates":[6.5958401,51.251887]},"properties":{"tract_id":"osm_1488364341","population":2000,"density_per_sqkm":0,"lng":6.5958401,"lat":51.251887,"name":"Hardt","place":"village"}},{"type":"Feature","geometry":{"type":"Point","coordinates":[6.6315071,51.3055327]},"properties":{"tract_id":"osm_1558247085","population":2289,"density_per_sqkm":0,"lng":6.6315071,"lat":51.3055327,"name":"Bösinghoven","place":"suburb"}},{"type":"Feature","geometry":{"type":"Point","coordinates":[6.6207151,51.2690922]},"properties":{"tract_id":"osm_1574568297","population":12645,"density_per_sqkm":0,"lng":6.6207151,"lat":51.2690922,"name":"Osterath","place":"suburb"}},{"type":"Feature","geometry":{"type":"Point","coordinates":[6.6081718,51.1970467]},"properties":{"tract_id":"osm_1581242341","population":6408,"density_per_sqkm":0,"lng":6.6081718,"lat":51.1970467,"name":"Büttgen","place":"suburb"}},{"type":"Feature","geometry":{"type":"Point","coordinates":[6.6337798,51.1725168]},"properties":{"tract_id":"osm_1581304193","population":3459,"density_per_sqkm":0,"lng":6.6337798,"lat":51.1725168,"name":"Grefrath","place":"village"}},{"type":"Feature","geometry":{"type":"Point","coordinates":[6.4814398,51.2531194]},"properties":{"tract_id":"osm_1613383092","population":6902,"density_per_sqkm":0,"lng":6.4814398,"lat":51.2531194,"name":"Neersen","place":"suburb"}},{"type":"Feature","geometry":{"type":"Point","coordinates":[6.5365831,51.2419278]},"properties":{"tract_id":"osm_1614811588","population":12188,"density_per_sqkm":0,"lng":6.5365831,"lat":51.2419278,"name":"Schiefbahn","place":"suburb"}},{"type":"Feature","geometry":{"type":"Point","coordinates":[6.4820983,51.2294303]},"properties":{"tract_id":"osm_1616045508","population":8000,"density_per_sqkm":0,"lng":6.4820983,"lat":51.2294303,"name":"Neersbroich","place":"neighbourhood"}},{"type":"Feature","geometry":{"type":"Point","coordinates":[6.4589721,51.2794758]},"properties":{"tract_id":"osm_1617575319","population":11569,"density_per_sqkm":0,"lng":6.4589721,"lat":51.2794758,"name":"Anrath","place":"suburb"}},{"type":"Feature","geometry":{"type":"Point","coordinates":[6.3421388,51.2057247]},"properties":{"tract_id":"osm_1618048159","population":2000,"density_per_sqkm":0,"lng":6.3421388,"lat":51.2057247,"name":"Hardt","place":"village"}},{"type":"Feature","geometry":{"type":"Point","coordinates":[6.4661024,51.1898597]},"properties":{"tract_id":"osm_1631809784","population":8000,"density_per_sqkm":0,"lng":6.4661024,"lat":51.1898597,"name":"Bungt","place":"neighbourhood"}},{"type":"Feature","geometry":{"type":"Point","coordinates":[6.4192663,51.2277078]},"properties":{"tract_id":"osm_1634551859","population":15000,"density_per_sqkm":0,"lng":6.4192663,"lat":51.2277078,"name":"Helenabrunn","place":"suburb"}},{"type":"Feature","geometry":{"type":"Point","coordinates":[6.3881381,51.2674577]},"properties":{"tract_id":"osm_1634603487","population":15000,"density_per_sqkm":0,"lng":6.3881381,"lat":51.2674577,"name":"Rahser","place":"suburb"}},{"type":"Feature","geometry":{"type":"Point","coordinates":[6.3884659,51.2790022]},"properties":{"tract_id":"osm_1634603501","population":15000,"density_per_sqkm":0,"lng":6.3884659,"lat":51.2790022,"name":"Sittard","place":"suburb"}},{"type":"Feature","geometry":{"type":"Point","coordinates":[6.2832276,51.1659354]},"properties":{"tract_id":"osm_1639271380","population":2000,"density_per_sqkm":0,"lng":6.2832276,"lat":51.1659354,"name":"Rickelrath","place":"village"}},{"type":"Feature","geometry":{"type":"Point","coordinates":[6.3237914,51.2293422]},"properties":{"tract_id":"osm_1643554937","population":2000,"density_per_sqkm":0,"lng":6.3237914,"lat":51.2293422,"name":"Mackenstein","place":"village"}},{"type":"Feature","geometry":{"type":"Point","coordinates":[6.2460882,51.2309802]},"properties":{"tract_id":"osm_1646909772","population":7500,"density_per_sqkm":0,"lng":6.2460882,"lat":51.2309802,"name":"Amern","place":"village"}},{"type":"Feature","geometry":{"type":"Point","coordinates":[6.27593,51.2758251]},"properties":{"tract_id":"osm_1647824728","population":2000,"density_per_sqkm":0,"lng":6.27593,"lat":51.2758251,"name":"Boisheim","place":"village"}},{"type":"Feature","geometry":{"type":"Point","coordinates":[6.2627925,51.24996]},"properties":{"tract_id":"osm_1647824731","population":2000,"density_per_sqkm":0,"lng":6.2627925,"lat":51.24996,"name":"Dilkrath","place":"village"}},{"type":"Feature","geometry":{"type":"Point","coordinates":[6.5315566,51.4385795]},"properties":{"tract_id":"osm_1673545506","population":15000,"density_per_sqkm":0,"lng":6.5315566,"lat":51.4385795,"name":"Vluyn","place":"suburb"}},{"type":"Feature","geometry":{"type":"Point","coordinates":[6.2816059,51.3335931]},"properties":{"tract_id":"osm_1693754523","population":4500,"density_per_sqkm":0,"lng":6.2816059,"lat":51.3335931,"name":"Hinsbeck","place":"village"}},{"type":"Feature","geometry":{"type":"Point","coordinates":[6.2763247,51.3061888]},"properties":{"tract_id":"osm_1695059551","population":14000,"density_per_sqkm":0,"lng":6.2763247,"lat":51.3061888,"name":"Lobberich","place":"town"}},{"type":"Feature","geometry":{"type":"Point","coordinates":[6.3348434,51.2515622]},"properties":{"tract_id":"osm_1695068228","population":25000,"density_per_sqkm":0,"lng":6.3348434,"lat":51.2515622,"name":"Dülken","place":"town"}},{"type":"Feature","geometry":{"type":"Point","coordinates":[6.408095,51.261107]},"properties":{"tract_id":"osm_1695068231","population":15000,"density_per_sqkm":0,"lng":6.408095,"lat":51.261107,"name":"Hülsdonk","place":"suburb"}},{"type":"Feature","geometry":{"type":"Point","coordinates":[6.3741191,51.2588789]},"properties":{"tract_id":"osm_1695068234","population":8000,"density_per_sqkm":0,"lng":6.3741191,"lat":51.2588789,"name":"Noppdorf","place":"neighbourhood"}},{"type":"Feature","geometry":{"type":"Point","coordinates":[6.3963682,51.2530698]},"properties":{"tract_id":"osm_1695068241","population":15000,"density_per_sqkm":0,"lng":6.3963682,"lat":51.2530698,"name":"Rintgen","place":"suburb"}},{"type":"Feature","geometry":{"type":"Point","coordinates":[6.4147155,51.2574798]},"properties":{"tract_id":"osm_1695068242","population":15000,"density_per_sqkm":0,"lng":6.4147155,"lat":51.2574798,"name":"Robend","place":"suburb"}},{"type":"Feature","geometry":{"type":"Point","coordinates":[6.4195011,51.3642126]},"properties":{"tract_id":"osm_1880126670","population":34618,"density_per_sqkm":0,"lng":6.4195011,"lat":51.3642126,"name":"Kempen","place":"town"}},{"type":"Feature","geometry":{"type":"Point","coordinates":[6.3352922,51.4065422]},"properties":{"tract_id":"osm_1880183456","population":2000,"density_per_sqkm":0,"lng":6.3352922,"lat":51.4065422,"name":"Wachtendonk","place":"village"}},{"type":"Feature","geometry":{"type":"Point","coordinates":[6.3059695,51.4005194]},"properties":{"tract_id":"osm_1944263309","population":2000,"density_per_sqkm":0,"lng":6.3059695,"lat":51.4005194,"name":"Wankum","place":"village"}},{"type":"Feature","geometry":{"type":"Point","coordinates":[6.253585,51.5904166]},"properties":{"tract_id":"osm_2042227812","population":2000,"density_per_sqkm":0,"lng":6.253585,"lat":51.5904166,"name":"Schravelen","place":"village"}},{"type":"Feature","geometry":{"type":"Point","coordinates":[6.626494,51.4519691]},"properties":{"tract_id":"osm_2214291522","population":8000,"density_per_sqkm":0,"lng":6.626494,"lat":51.4519691,"name":"Altstadt Moers","place":"neighbourhood"}},{"type":"Feature","geometry":{"type":"Point","coordinates":[6.2732794,51.4007561]},"properties":{"tract_id":"osm_2334355431","population":8000,"density_per_sqkm":0,"lng":6.2732794,"lat":51.4007561,"name":"Altbroekhuysen","place":"neighbourhood"}},{"type":"Feature","geometry":{"type":"Point","coordinates":[6.2613125,51.1884984]},"properties":{"tract_id":"osm_2614747021","population":2000,"density_per_sqkm":0,"lng":6.2613125,"lat":51.1884984,"name":"Lüttelforst","place":"village"}},{"type":"Feature","geometry":{"type":"Point","coordinates":[6.6014097,51.5458979]},"properties":{"tract_id":"osm_2654415278","population":30610,"density_per_sqkm":0,"lng":6.6014097,"lat":51.5458979,"name":"Rheinberg","place":"town"}},{"type":"Feature","geometry":{"type":"Point","coordinates":[6.5345216,51.4529034]},"properties":{"tract_id":"osm_2666710425","population":8000,"density_per_sqkm":0,"lng":6.5345216,"lat":51.4529034,"name":"Hochkamer","place":"neighbourhood"}},{"type":"Feature","geometry":{"type":"Point","coordinates":[6.6373222,51.2678542]},"properties":{"tract_id":"osm_2667647401","population":15000,"density_per_sqkm":0,"lng":6.6373222,"lat":51.2678542,"name":"Bovert","place":"suburb"}},{"type":"Feature","geometry":{"type":"Point","coordinates":[6.3009412,51.4896517]},"properties":{"tract_id":"osm_3993218937","population":8000,"density_per_sqkm":0,"lng":6.3009412,"lat":51.4896517,"name":"An Zanderskath","place":"neighbourhood"}},{"type":"Feature","geometry":{"type":"Point","coordinates":[6.5057791,51.2085311]},"properties":{"tract_id":"osm_4030888210","population":2000,"density_per_sqkm":0,"lng":6.5057791,"lat":51.2085311,"name":"Herrenshoff","place":"village"}},{"type":"Feature","geometry":{"type":"Point","coordinates":[6.2417886,51.3882363]},"properties":{"tract_id":"osm_4663809643","population":2000,"density_per_sqkm":0,"lng":6.2417886,"lat":51.3882363,"name":"Niederdorf","place":"village"}},{"type":"Feature","geometry":{"type":"Point","coordinates":[6.4551077,51.4923315]},"properties":{"tract_id":"osm_5056322710","population":2000,"density_per_sqkm":0,"lng":6.4551077,"lat":51.4923315,"name":"Oermten","place":"village"}},{"type":"Feature","geometry":{"type":"Point","coordinates":[6.4788635,51.5727775]},"properties":{"tract_id":"osm_5498495670","population":1709,"density_per_sqkm":0,"lng":6.4788635,"lat":51.5727775,"name":"Bönninghardt","place":"village"}},{"type":"Feature","geometry":{"type":"Point","coordinates":[6.4638917,51.3499602]},"properties":{"tract_id":"osm_5648282869","population":2000,"density_per_sqkm":0,"lng":6.4638917,"lat":51.3499602,"name":"Unterweiden","place":"village"}},{"type":"Feature","geometry":{"type":"Point","coordinates":[6.3394642,51.4711058]},"properties":{"tract_id":"osm_5667464440","population":2000,"density_per_sqkm":0,"lng":6.3394642,"lat":51.4711058,"name":"Winternam","place":"village"}},{"type":"Feature","geometry":{"type":"Point","coordinates":[6.4635068,51.2165591]},"properties":{"tract_id":"osm_6807529159","population":8000,"density_per_sqkm":0,"lng":6.4635068,"lat":51.2165591,"name":"Webersiedlung","place":"neighbourhood"}},{"type":"Feature","geometry":{"type":"Point","coordinates":[6.5180484,51.2737204]},"properties":{"tract_id":"osm_7485280259","population":2000,"density_per_sqkm":0,"lng":6.5180484,"lat":51.2737204,"name":"Münchheide","place":"village"}},{"type":"Feature","geometry":{"type":"Point","coordinates":[6.5480499,51.5040423]},"properties":{"tract_id":"osm_8254605616","population":8000,"density_per_sqkm":0,"lng":6.5480499,"lat":51.5040423,"name":"Stadtmitte","place":"neighbourhood"}},{"type":"Feature","geometry":{"type":"Point","coordinates":[6.4305746,51.432608]},"properties":{"tract_id":"osm_8711785701","population":2000,"density_per_sqkm":0,"lng":6.4305746,"lat":51.432608,"name":"Rahm","place":"village"}},{"type":"Feature","geometry":{"type":"Point","coordinates":[6.3882892,51.1758305]},"properties":{"tract_id":"osm_8753307219","population":5000,"density_per_sqkm":0,"lng":6.3882892,"lat":51.1758305,"name":"Nordpark","place":"quarter"}},{"type":"Feature","geometry":{"type":"Point","coordinates":[6.5378337,51.586323]},"properties":{"tract_id":"osm_9850111172","population":564,"density_per_sqkm":0,"lng":6.5378337,"lat":51.586323,"name":"Drüpt","place":"village"}},{"type":"Feature","geometry":{"type":"Point","coordinates":[6.532212,51.5713334]},"properties":{"tract_id":"osm_10018849057","population":2000,"density_per_sqkm":0,"lng":6.532212,"lat":51.5713334,"name":"Huck","place":"village"}},{"type":"Feature","geometry":{"type":"Point","coordinates":[6.5919699,51.4997946]},"properties":{"tract_id":"osm_10894130890","population":5000,"density_per_sqkm":0,"lng":6.5919699,"lat":51.4997946,"name":"Muspasch","place":"quarter"}},{"type":"Feature","geometry":{"type":"Point","coordinates":[6.5985847,51.4284544]},"properties":{"tract_id":"osm_10895659531","population":15000,"density_per_sqkm":0,"lng":6.5985847,"lat":51.4284544,"name":"Hülshorst","place":"suburb"}},{"type":"Feature","geometry":{"type":"Point","coordinates":[6.6011757,51.4672929]},"properties":{"tract_id":"osm_10908880085","population":15000,"density_per_sqkm":0,"lng":6.6011757,"lat":51.4672929,"name":"Sandfort","place":"suburb"}},{"type":"Feature","geometry":{"type":"Point","coordinates":[6.5908099,51.5117482]},"properties":{"tract_id":"osm_10914006957","population":15000,"density_per_sqkm":0,"lng":6.5908099,"lat":51.5117482,"name":"Kohlenhuck","place":"suburb"}},{"type":"Feature","geometry":{"type":"Point","coordinates":[6.5344083,51.5950884]},"properties":{"tract_id":"osm_11455674532","population":8000,"density_per_sqkm":0,"lng":6.5344083,"lat":51.5950884,"name":"Bönning","place":"neighbourhood"}},{"type":"Feature","geometry":{"type":"Point","coordinates":[6.5707108,51.3306426]},"properties":{"tract_id":"osm_12088860349","population":8000,"density_per_sqkm":0,"lng":6.5707108,"lat":51.3306426,"name":"Kronprinzenviertel","place":"neighbourhood"}},{"type":"Feature","geometry":{"type":"Point","coordinates":[6.579119,51.3334855]},"properties":{"tract_id":"osm_12088860359","population":8000,"density_per_sqkm":0,"lng":6.579119,"lat":51.3334855,"name":"Hardenbergviertel","place":"neighbourhood"}},{"type":"Feature","geometry":{"type":"Point","coordinates":[6.595619,51.407111]},"properties":{"tract_id":"osm_12876779141","population":2000,"density_per_sqkm":0,"lng":6.595619,"lat":51.407111,"name":"Achterrathsfeld","place":"village"}},{"type":"Feature","geometry":{"type":"Point","coordinates":[6.5122674,51.4301914]},"properties":{"tract_id":"osm_12895553382","population":15000,"density_per_sqkm":0,"lng":6.5122674,"lat":51.4301914,"name":"Neufeld","place":"suburb"}}]}