{
  "type": "FeatureCollection",
  "features": [
    {
      "type": "Feature",
      "geometry": {
        "type": "Polygon",
        "coordinates": [
          [
            [-118.5320, 34.0420],
            [-118.5260, 34.0410],
            [-118.5200, 34.0450],
            [-118.5190, 34.0510],
            [-118.5240, 34.0560],
            [-118.5310, 34.0570],
            [-118.5370, 34.0530],
            [-118.5380, 34.0460],
            [-118.5320, 34.0420]
          ]
        ]
      },
      "properties": {
        "tick": 1,
        "acres": 1200,
        "timestamp": "2025-01-07T10:00:00Z",
        "label": "Initial spread - 6 hours"
      }
    },
    {
      "type": "Feature",
      "geometry": {
        "type": "Polygon",
        "coordinates": [
          [
            [-118.5420, 34.0370],
            [-118.5300, 34.0330],
            [-118.5170, 34.0360],
            [-118.5090, 34.0430],
            [-118.5080, 34.0530],
            [-118.5140, 34.0610],
            [-118.5240, 34.0660],
            [-118.5360, 34.0660],
            [-118.5460, 34.0600],
            [-118.5500, 34.0510],
            [-118.5470, 34.0420],
            [-118.5420, 34.0370]
          ]
        ]
      },
      "properties": {
        "tick": 2,
        "acres": 3500,
        "timestamp": "2025-01-07T16:00:00Z",
        "label": "Rapid spread - 12 hours"
      }
    },
    {
      "type": "Feature",
      "geometry": {
        "type": "Polygon",
        "coordinates": [
          [
            [-118.5550, 34.0300],
            [-118.5400, 34.0240],
            [-118.5220, 34.0250],
            [-118.5040, 34.0320],
            [-118.4940, 34.0430],
            [-118.4920, 34.0570],
            [-118.4990, 34.0680],
            [-118.5110, 34.0760],
            [-118.5270, 34.0800],
            [-118.5440, 34.0790],
            [-118.5580, 34.0710],
            [-118.5660, 34.0590],
            [-118.5650, 34.0450],
            [-118.5550, 34.0300]
          ]
        ]
      },
      "properties": {
        "tick": 3,
        "acres": 7000,
        "timestamp": "2025-01-08T00:00:00Z",
        "label": "Significant spread toward coast - 20 hours"
      }
    },
    {
      "type": "Feature",
      "geometry": {
        "type": "Polygon",
        "coordinates": [
          [
            [-118.5700, 34.0210],
            [-118.5520, 34.0140],
            [-118.5310, 34.0130],
            [-118.5090, 34.0190],
            [-118.4880, 34.0310],
            [-118.4760, 34.0470],
            [-118.4740, 34.0640],
            [-118.4830, 34.0790],
            [-118.4980, 34.0900],
            [-118.5170, 34.0960],
            [-118.5380, 34.0970],
            [-118.5580, 34.0900],
            [-118.5740, 34.0780],
            [-118.5820, 34.0610],
            [-118.5800, 34.0410],
            [-118.5700, 34.0210]
          ]
        ]
      },
      "properties": {
        "tick": 4,
        "acres": 12000,
        "timestamp": "2025-01-08T10:00:00Z",
        "label": "Engulfs Palisades hillsides - 30 hours"
      }
    },
    {
      "type": "Feature",
      "geometry": {
        "type": "Polygon",
        "coordinates": [
          [
            [-118.5870, 34.0130],
            [-118.5680, 34.0040],
            [-118.5450, 33.9980],
            [-118.5200, 33.9970],
            [-118.4960, 34.0040],
            [-118.4730, 34.0190],
            [-118.4580, 34.0390],
            [-118.4540, 34.0600],
            [-118.4630, 34.0800],
            [-118.4800, 34.0970],
            [-118.5010, 34.1090],
            [-118.5240, 34.1150],
            [-118.5490, 34.1140],
            [-118.5710, 34.1050],
            [-118.5900, 34.0900],
            [-118.6000, 34.0700],
            [-118.5990, 34.0460],
            [-118.5870, 34.0130]
          ]
        ]
      },
      "properties": {
        "tick": 5,
        "acres": 17500,
        "timestamp": "2025-01-09T00:00:00Z",
        "label": "Extends toward Malibu/Topanga - 44 hours"
      }
    },
    {
      "type": "Feature",
      "geometry": {
        "type": "Polygon",
        "coordinates": [
          [
            [-118.5960, 34.0060],
            [-118.5760, 33.9960],
            [-118.5510, 33.9890],
            [-118.5240, 33.9880],
            [-118.4970, 33.9960],
            [-118.4720, 34.0130],
            [-118.4530, 34.0360],
            [-118.4460, 34.0600],
            [-118.4540, 34.0840],
            [-118.4730, 34.1030],
            [-118.4970, 34.1180],
            [-118.5230, 34.1260],
            [-118.5510, 34.1260],
            [-118.5760, 34.1160],
            [-118.5970, 34.0990],
            [-118.6090, 34.0780],
            [-118.6110, 34.0530],
            [-118.6020, 34.0270],
            [-118.5960, 34.0060]
          ]
        ]
      },
      "properties": {
        "tick": 6,
        "acres": 21000,
        "timestamp": "2025-01-10T00:00:00Z",
        "label": "Approaches final extent - 62 hours"
      }
    },
    {
      "type": "Feature",
      "geometry": {
        "type": "Polygon",
        "coordinates": [
          [
            [-118.6020, 34.0010],
            [-118.5820, 33.9900],
            [-118.5570, 33.9820],
            [-118.5290, 33.9810],
            [-118.5010, 33.9890],
            [-118.4740, 34.0070],
            [-118.4530, 34.0320],
            [-118.4420, 34.0590],
            [-118.4480, 34.0870],
            [-118.4670, 34.1090],
            [-118.4920, 34.1270],
            [-118.5200, 34.1370],
            [-118.5500, 34.1380],
            [-118.5780, 34.1290],
            [-118.6010, 34.1100],
            [-118.6150, 34.0870],
            [-118.6190, 34.0600],
            [-118.6110, 34.0320],
            [-118.6020, 34.0010]
          ]
        ]
      },
      "properties": {
        "tick": 7,
        "acres": 23448,
        "timestamp": "2025-01-11T12:00:00Z",
        "label": "Final perimeter - 78 hours"
      }
    }
  ]
}
